{"type":"FeatureCollection","name":"kreis_viersen","xy_coordinate_resolution":1e-05,"bbox":[6.06799,51.16682,6.62596,51.42501],"features":[{"type":"Feature","properties":{"ART":"K","GN":"Viersen","KN":"05166000","STAND":"20251112"},"bbox":[6.06799,51.16682,6.62596,51.42501],"geometry":{"type":"MultiPolygon","coordinates":[[[[6.4928,51.29993],[6.49258,51.30025],[6.49242,51.30049],[6.49228,51.3007],[6.49212,51.30093],[6.49202,51.30093],[6.49184,51.30093],[6.49104,51.30091],[6.49031,51.3009],[6.48994,51.30089],[6.48977,51.30089],[6.48974,51.30094],[6.48948,51.30144],[6.48925,51.30189],[6.489,51.30239],[6.48881,51.30314],[6.48883,51.30314],[6.48969,51.30321],[6.4907,51.30328],[6.49114,51.30331],[6.49198,51.30347],[6.49249,51.30356],[6.49385,51.30381],[6.49476,51.30398],[6.49533,51.30408],[6.49549,51.30411],[6.49566,51.30414],[6.4957,51.30415],[6.49594,51.30419],[6.49646,51.30428],[6.49765,51.3045],[6.49771,51.30451],[6.4987,51.30469],[6.49948,51.30483],[6.49981,51.30489],[6.50023,51.30496],[6.50106,51.30511],[6.50164,51.30521],[6.50179,51.30524],[6.50206,51.30529],[6.50278,51.30557],[6.50315,51.30576],[6.50349,51.30594],[6.50358,51.30598],[6.50414,51.30626],[6.50427,51.30633],[6.50434,51.30635],[6.50426,51.3066],[6.50519,51.30673],[6.50516,51.30679],[6.50572,51.30696],[6.50649,51.30736],[6.50661,51.30743],[6.50708,51.3077],[6.50722,51.30777],[6.50766,51.308],[6.50794,51.30815],[6.50813,51.30827],[6.50839,51.30841],[6.50882,51.30863],[6.50924,51.30886],[6.50936,51.30891],[6.50944,51.30896],[6.51027,51.3094],[6.51037,51.30945],[6.51084,51.30971],[6.51144,51.31004],[6.5115,51.31001],[6.51195,51.31033],[6.51202,51.31038],[6.51209,51.31042],[6.51213,51.31051],[6.51226,51.31082],[6.51249,51.31134],[6.51279,51.31202],[6.51312,51.31278],[6.51343,51.31347],[6.5138,51.31433],[6.51412,51.31504],[6.51429,51.31544],[6.51449,51.31588],[6.51452,51.31597],[6.51452,51.31616],[6.51451,51.31674],[6.51451,51.3169],[6.51449,51.31734],[6.51452,51.31782],[6.51451,51.3181],[6.51451,51.3184],[6.51451,51.31869],[6.5145,51.31923],[6.5145,51.31934],[6.5145,51.31982],[6.51449,51.32034],[6.51449,51.32075],[6.51448,51.32111],[6.51446,51.32132],[6.5142,51.32149],[6.51415,51.32152],[6.51393,51.32165],[6.51373,51.32176],[6.51369,51.32181],[6.51363,51.32193],[6.51361,51.32197],[6.51346,51.32228],[6.51337,51.32247],[6.51333,51.32256],[6.51327,51.32265],[6.51326,51.32266],[6.51285,51.32325],[6.51283,51.32329],[6.51283,51.32341],[6.51284,51.32388],[6.51285,51.32391],[6.51286,51.324],[6.51288,51.32407],[6.51289,51.32415],[6.51286,51.32428],[6.51331,51.32565],[6.51411,51.3279],[6.51425,51.32829],[6.51427,51.32835],[6.5144,51.32839],[6.5157,51.32864],[6.51551,51.32921],[6.51454,51.33202],[6.51452,51.33216],[6.51418,51.33315],[6.51421,51.3333],[6.51423,51.33338],[6.51451,51.33405],[6.51461,51.33442],[6.51463,51.33453],[6.51454,51.33466],[6.51441,51.33481],[6.51348,51.33585],[6.51303,51.33632],[6.51252,51.33687],[6.5121,51.33734],[6.51026,51.33883],[6.51019,51.33888],[6.51004,51.33901],[6.50986,51.33917],[6.50981,51.3392],[6.50908,51.33942],[6.50908,51.33937],[6.50906,51.33938],[6.50818,51.33965],[6.50427,51.34088],[6.50423,51.34093],[6.50004,51.34222],[6.49772,51.34294],[6.4959,51.34352],[6.49533,51.3437],[6.49503,51.34379],[6.49479,51.34387],[6.49207,51.34471],[6.48736,51.34618],[6.48649,51.34648],[6.48646,51.3465],[6.48672,51.34669],[6.48678,51.34673],[6.48683,51.34678],[6.48688,51.34683],[6.48695,51.34691],[6.487,51.34697],[6.48703,51.34701],[6.48705,51.34705],[6.48706,51.34709],[6.48709,51.34732],[6.4871,51.34845],[6.48715,51.34846],[6.48739,51.3485],[6.48761,51.34855],[6.48831,51.34873],[6.48838,51.34875],[6.48844,51.34881],[6.48869,51.34937],[6.48929,51.35041],[6.48931,51.35045],[6.48904,51.35049],[6.48897,51.3505],[6.48881,51.35052],[6.48817,51.35062],[6.48742,51.35083],[6.48696,51.35093],[6.4865,51.35101],[6.48603,51.35109],[6.48543,51.35232],[6.48733,51.35263],[6.48686,51.35369],[6.48745,51.3538],[6.48995,51.35423],[6.48984,51.35447],[6.48981,51.35454],[6.48977,51.35459],[6.48955,51.35481],[6.48923,51.35527],[6.48905,51.35577],[6.48887,51.35625],[6.48869,51.35664],[6.48847,51.35697],[6.48798,51.35751],[6.48749,51.35804],[6.48733,51.35823],[6.48727,51.35831],[6.48722,51.35839],[6.48717,51.35848],[6.48713,51.35857],[6.4871,51.35864],[6.48708,51.35873],[6.48705,51.35882],[6.48702,51.35894],[6.487,51.35907],[6.48698,51.35943],[6.48697,51.3598],[6.48698,51.36013],[6.48703,51.3606],[6.4871,51.36099],[6.48723,51.36142],[6.48735,51.36175],[6.48735,51.36177],[6.48753,51.36179],[6.49074,51.36212],[6.4908,51.36212],[6.4921,51.3623],[6.49193,51.36248],[6.49158,51.36284],[6.49085,51.36359],[6.48827,51.36625],[6.48821,51.36637],[6.48759,51.36748],[6.48673,51.369],[6.48613,51.37009],[6.48604,51.37026],[6.48575,51.37079],[6.48494,51.37219],[6.48496,51.37231],[6.48551,51.37667],[6.48591,51.37969],[6.48592,51.37983],[6.48612,51.38125],[6.48613,51.38134],[6.48613,51.38135],[6.48672,51.38339],[6.48356,51.3837],[6.48032,51.38401],[6.48179,51.38609],[6.48177,51.38609],[6.47796,51.38649],[6.47792,51.3865],[6.47872,51.38965],[6.47875,51.38974],[6.47903,51.39033],[6.47922,51.39071],[6.47925,51.3908],[6.47925,51.39082],[6.47925,51.39083],[6.47919,51.39112],[6.47916,51.39136],[6.47916,51.39137],[6.47915,51.39144],[6.47915,51.39151],[6.47914,51.3917],[6.47912,51.39206],[6.47911,51.39212],[6.47938,51.39211],[6.4795,51.39211],[6.47963,51.39211],[6.47977,51.39209],[6.48003,51.39207],[6.48258,51.39184],[6.48172,51.39586],[6.48172,51.39588],[6.48142,51.39726],[6.48132,51.39769],[6.4813,51.3979],[6.48149,51.39792],[6.48184,51.39793],[6.48203,51.39794],[6.48213,51.39794],[6.4822,51.39794],[6.48249,51.39793],[6.4827,51.39792],[6.483,51.39791],[6.48314,51.3979],[6.48319,51.3979],[6.48328,51.3979],[6.48354,51.39792],[6.48454,51.39798],[6.48592,51.39807],[6.48792,51.3982],[6.48899,51.39827],[6.48929,51.3989],[6.48932,51.39895],[6.48934,51.399],[6.4894,51.39913],[6.48943,51.39921],[6.48945,51.39929],[6.48946,51.39933],[6.48946,51.39937],[6.48945,51.39949],[6.48945,51.39952],[6.48944,51.39961],[6.48944,51.39966],[6.48944,51.39973],[6.48944,51.39984],[6.48944,51.39984],[6.48947,51.39993],[6.48948,51.39997],[6.48949,51.4],[6.48953,51.40004],[6.48961,51.40013],[6.48975,51.40031],[6.48982,51.40039],[6.4899,51.40051],[6.49001,51.40066],[6.4901,51.40078],[6.49017,51.4009],[6.49023,51.40097],[6.49029,51.40104],[6.49035,51.40109],[6.49038,51.40111],[6.49041,51.40113],[6.49045,51.40114],[6.4905,51.40116],[6.49058,51.4012],[6.4907,51.40124],[6.49095,51.40131],[6.49101,51.40133],[6.49106,51.40134],[6.4911,51.40135],[6.49114,51.40136],[6.49115,51.40136],[6.49123,51.40137],[6.49186,51.40197],[6.49557,51.40091],[6.4966,51.40061],[6.49805,51.40019],[6.49819,51.40017],[6.49836,51.40015],[6.4984,51.40015],[6.49998,51.39988],[6.5004,51.3998],[6.50092,51.3997],[6.50124,51.39964],[6.50252,51.39941],[6.50267,51.39939],[6.50329,51.3993],[6.50347,51.39928],[6.5039,51.39922],[6.50437,51.39916],[6.50501,51.39907],[6.50558,51.39899],[6.50665,51.39883],[6.50791,51.39864],[6.50851,51.39856],[6.50979,51.39836],[6.51089,51.3982],[6.51173,51.39808],[6.51175,51.39808],[6.51217,51.39819],[6.51394,51.39832],[6.5144,51.39844],[6.51462,51.39843],[6.515,51.39846],[6.51522,51.39847],[6.51608,51.3985],[6.51666,51.39849],[6.51681,51.39849],[6.51764,51.39845],[6.51768,51.39845],[6.51834,51.39841],[6.51883,51.39838],[6.51972,51.39834],[6.52093,51.39833],[6.52107,51.39833],[6.52219,51.39831],[6.52309,51.39829],[6.52332,51.39829],[6.52341,51.39829],[6.52349,51.3983],[6.52356,51.39831],[6.52363,51.39831],[6.52374,51.39833],[6.52389,51.39835],[6.52428,51.39842],[6.52449,51.39845],[6.52487,51.39853],[6.52508,51.39856],[6.52552,51.39863],[6.52654,51.39911],[6.52741,51.39953],[6.5275,51.39956],[6.52757,51.39958],[6.52808,51.39981],[6.52818,51.39986],[6.52824,51.39989],[6.5283,51.39993],[6.52834,51.39996],[6.52836,51.39999],[6.52838,51.40001],[6.52839,51.40004],[6.52841,51.40006],[6.52842,51.40009],[6.52842,51.40012],[6.52843,51.40015],[6.52843,51.40017],[6.52842,51.40021],[6.52841,51.40026],[6.5284,51.4003],[6.52837,51.40036],[6.52835,51.40041],[6.52833,51.40044],[6.52831,51.40047],[6.52828,51.4005],[6.52824,51.40053],[6.5282,51.40057],[6.52811,51.40074],[6.52788,51.4013],[6.5278,51.40148],[6.52769,51.4017],[6.5275,51.4021],[6.52828,51.402],[6.52937,51.40187],[6.5302,51.40205],[6.53032,51.40208],[6.53041,51.40209],[6.53045,51.40209],[6.53049,51.40209],[6.53053,51.40209],[6.53056,51.40208],[6.53078,51.40204],[6.53079,51.40206],[6.53082,51.40209],[6.53086,51.40212],[6.53091,51.40216],[6.53283,51.40357],[6.53462,51.40488],[6.53467,51.40491],[6.5347,51.40489],[6.53484,51.40499],[6.53501,51.40512],[6.53524,51.40529],[6.53552,51.4055],[6.53554,51.40551],[6.53527,51.40568],[6.5352,51.40572],[6.53513,51.40576],[6.53508,51.40579],[6.53503,51.40581],[6.5349,51.40586],[6.53485,51.40588],[6.53481,51.4059],[6.53477,51.40593],[6.53468,51.40599],[6.53442,51.40619],[6.53375,51.4067],[6.53335,51.40702],[6.53317,51.40726],[6.53322,51.40728],[6.53263,51.40779],[6.53253,51.40792],[6.53241,51.40806],[6.53183,51.40862],[6.53232,51.40882],[6.53125,51.41012],[6.53056,51.41094],[6.52991,51.4117],[6.52951,51.41219],[6.52935,51.41238],[6.52902,51.41276],[6.52804,51.41513],[6.52787,51.41547],[6.52779,51.41569],[6.52774,51.41584],[6.52807,51.41639],[6.52824,51.41682],[6.52813,51.41743],[6.52804,51.41784],[6.52795,51.41839],[6.52786,51.41896],[6.52781,51.41896],[6.52774,51.41896],[6.52765,51.41895],[6.52765,51.41902],[6.52752,51.42018],[6.52745,51.42067],[6.52741,51.42085],[6.52733,51.42147],[6.52727,51.42189],[6.52703,51.42218],[6.5251,51.42441],[6.52507,51.42444],[6.52493,51.42443],[6.5246,51.42443],[6.52384,51.42442],[6.52348,51.42442],[6.52263,51.42439],[6.52257,51.42442],[6.52085,51.42438],[6.52011,51.42437],[6.5194,51.42434],[6.51928,51.42434],[6.51897,51.42433],[6.51863,51.42435],[6.51828,51.42443],[6.51701,51.42478],[6.51679,51.42488],[6.51654,51.42501],[6.51646,51.42499],[6.51605,51.42486],[6.51558,51.42472],[6.5148,51.42448],[6.51472,51.42445],[6.51468,51.42451],[6.51427,51.42476],[6.51423,51.42473],[6.51263,51.42377],[6.5126,51.42376],[6.51263,51.42373],[6.5122,51.42347],[6.51196,51.42332],[6.51218,51.4232],[6.51158,51.42281],[6.5105,51.42209],[6.50924,51.42128],[6.50907,51.421],[6.50881,51.4207],[6.50873,51.42057],[6.5087,51.42051],[6.50819,51.42012],[6.50743,51.41957],[6.50736,51.41962],[6.50728,51.41968],[6.50666,51.42005],[6.50661,51.42009],[6.50658,51.42011],[6.50656,51.42013],[6.50655,51.42014],[6.50651,51.42021],[6.5064,51.42038],[6.50636,51.42046],[6.50632,51.4205],[6.50627,51.42055],[6.50596,51.42083],[6.50566,51.42113],[6.50557,51.42121],[6.50532,51.42137],[6.50492,51.42158],[6.5044,51.42184],[6.50433,51.42187],[6.50425,51.42191],[6.5042,51.42193],[6.50415,51.42194],[6.50382,51.42201],[6.50373,51.42203],[6.50362,51.42204],[6.50345,51.42206],[6.50324,51.42191],[6.50162,51.42075],[6.50089,51.42018],[6.49997,51.41948],[6.50003,51.41944],[6.49983,51.4193],[6.49893,51.41911],[6.49834,51.41897],[6.4966,51.41859],[6.49494,51.41822],[6.49493,51.41822],[6.49437,51.4181],[6.49422,51.41806],[6.49355,51.4179],[6.49352,51.41792],[6.49337,51.41801],[6.4932,51.4181],[6.49311,51.41807],[6.49266,51.4179],[6.49198,51.4177],[6.49173,51.41763],[6.49172,51.41763],[6.49121,51.4175],[6.49122,51.41749],[6.49123,51.41747],[6.48962,51.41708],[6.48812,51.41673],[6.48624,51.41629],[6.48619,51.41627],[6.48614,51.41632],[6.4861,51.41636],[6.48565,51.41678],[6.48559,51.41683],[6.48554,51.41688],[6.48523,51.41717],[6.48519,51.41721],[6.4828,51.4195],[6.48223,51.42],[6.4817,51.41979],[6.48119,51.4196],[6.48044,51.41931],[6.47982,51.41909],[6.47958,51.41902],[6.47904,51.4194],[6.47895,51.41945],[6.47842,51.41953],[6.4781,51.41975],[6.47833,51.4199],[6.47788,51.42034],[6.47747,51.42013],[6.47685,51.42065],[6.47633,51.42042],[6.476,51.42025],[6.47547,51.41997],[6.47534,51.42004],[6.47432,51.41923],[6.47323,51.41873],[6.47199,51.41942],[6.47193,51.41939],[6.47188,51.41937],[6.47183,51.41935],[6.47178,51.41933],[6.47161,51.41929],[6.47094,51.41912],[6.47052,51.41901],[6.47028,51.41895],[6.47014,51.41891],[6.46999,51.41886],[6.46966,51.41875],[6.46934,51.41865],[6.46929,51.41862],[6.46925,51.4186],[6.46922,51.41858],[6.4692,51.41856],[6.46914,51.41851],[6.46897,51.41832],[6.46879,51.41812],[6.46856,51.41786],[6.46797,51.41731],[6.46791,51.41725],[6.46785,51.41719],[6.46779,51.41712],[6.46771,51.41703],[6.4676,51.41689],[6.46751,51.41678],[6.46744,51.41668],[6.46738,51.41658],[6.46728,51.4164],[6.46722,51.4163],[6.46719,51.41624],[6.46717,51.41618],[6.46715,51.41613],[6.46709,51.41589],[6.46709,51.41588],[6.46709,51.41587],[6.46711,51.41583],[6.46712,51.41581],[6.4672,51.41573],[6.46728,51.41565],[6.46734,51.4156],[6.46741,51.41553],[6.46746,51.41547],[6.46748,51.41543],[6.4675,51.41539],[6.46755,51.41528],[6.46755,51.41526],[6.46676,51.41528],[6.46622,51.4153],[6.46614,51.41509],[6.46603,51.41479],[6.46596,51.41467],[6.46589,51.41453],[6.46581,51.41395],[6.46572,51.41285],[6.46571,51.41281],[6.46572,51.41278],[6.46594,51.4123],[6.46628,51.41144],[6.46638,51.41133],[6.46644,51.41127],[6.46649,51.41121],[6.46662,51.41108],[6.46652,51.41092],[6.46676,51.40982],[6.46677,51.40978],[6.46677,51.40972],[6.46677,51.40961],[6.46675,51.4094],[6.46674,51.40933],[6.46673,51.40928],[6.46671,51.4092],[6.46665,51.40912],[6.46659,51.40907],[6.46654,51.40902],[6.46646,51.40895],[6.46641,51.40891],[6.46602,51.40869],[6.46559,51.40838],[6.46551,51.40833],[6.46548,51.40831],[6.46546,51.40828],[6.46543,51.40824],[6.4654,51.40818],[6.46534,51.40816],[6.46519,51.40812],[6.46298,51.40776],[6.4627,51.40772],[6.46255,51.40772],[6.46179,51.40564],[6.45933,51.40595],[6.45765,51.40615],[6.45688,51.40622],[6.45533,51.40643],[6.45449,51.40655],[6.45359,51.40667],[6.45352,51.40666],[6.45182,51.40689],[6.45177,51.4069],[6.4515,51.40694],[6.45078,51.40703],[6.44984,51.40716],[6.4489,51.40728],[6.44814,51.40738],[6.44809,51.40739],[6.44803,51.4074],[6.44762,51.40745],[6.44162,51.40827],[6.44159,51.40827],[6.44039,51.40832],[6.44024,51.40833],[6.43936,51.40828],[6.43795,51.4082],[6.43795,51.40818],[6.436,51.40804],[6.43486,51.40802],[6.43405,51.40799],[6.43348,51.40796],[6.43335,51.40799],[6.43054,51.40846],[6.43027,51.40866],[6.42986,51.40897],[6.4297,51.4091],[6.42968,51.40911],[6.42962,51.40916],[6.4296,51.40917],[6.42954,51.40922],[6.42953,51.40923],[6.4294,51.40932],[6.42938,51.40934],[6.42934,51.40937],[6.42866,51.40993],[6.42823,51.40998],[6.42635,51.41023],[6.42553,51.41034],[6.42414,51.41054],[6.42411,51.41056],[6.42408,51.41057],[6.41966,51.41113],[6.41869,51.41126],[6.41853,51.41128],[6.4178,51.41139],[6.41727,51.41146],[6.41529,51.41172],[6.41493,51.41177],[6.41485,51.4118],[6.41306,51.412],[6.41176,51.41215],[6.41144,51.41218],[6.40924,51.41243],[6.40688,51.41273],[6.40492,51.41298],[6.40379,51.41313],[6.40184,51.41337],[6.40129,51.41344],[6.40038,51.41336],[6.39863,51.41315],[6.39849,51.41313],[6.39843,51.41313],[6.39835,51.41313],[6.39827,51.41313],[6.39813,51.41314],[6.39671,51.41051],[6.3964,51.40988],[6.39615,51.40914],[6.39596,51.40823],[6.39581,51.40772],[6.39531,51.4064],[6.39472,51.40528],[6.39445,51.40482],[6.39436,51.40465],[6.39431,51.40458],[6.39428,51.40452],[6.39417,51.40431],[6.39399,51.40428],[6.39385,51.40424],[6.39353,51.40416],[6.39331,51.40414],[6.39313,51.40411],[6.39101,51.40364],[6.38646,51.40255],[6.38342,51.40174],[6.38295,51.40161],[6.38076,51.40097],[6.38071,51.40096],[6.38073,51.40093],[6.38129,51.40023],[6.38131,51.4002],[6.38131,51.40012],[6.38131,51.4001],[6.38126,51.39934],[6.38214,51.39935],[6.38277,51.39928],[6.3826,51.39868],[6.38286,51.39866],[6.38284,51.39851],[6.38278,51.39805],[6.38278,51.39804],[6.38364,51.39804],[6.38374,51.39804],[6.38378,51.39804],[6.38591,51.39735],[6.38593,51.39734],[6.38604,51.39729],[6.38609,51.39727],[6.38613,51.39725],[6.38626,51.39716],[6.38638,51.39708],[6.38643,51.39704],[6.3865,51.39697],[6.38656,51.39692],[6.3866,51.39688],[6.38662,51.39685],[6.38665,51.39681],[6.38669,51.39675],[6.38693,51.39625],[6.38702,51.39604],[6.38714,51.39579],[6.3872,51.39565],[6.38724,51.39557],[6.38739,51.39526],[6.3871,51.39502],[6.38761,51.39456],[6.38732,51.39445],[6.38708,51.39436],[6.38639,51.39409],[6.38621,51.39402],[6.38638,51.39378],[6.38627,51.3937],[6.38549,51.39337],[6.38489,51.39317],[6.38417,51.39294],[6.38393,51.39287],[6.38389,51.39286],[6.38356,51.39276],[6.38329,51.39266],[6.38309,51.39259],[6.38294,51.39253],[6.38289,51.39251],[6.38284,51.39249],[6.3828,51.39247],[6.38276,51.39244],[6.38272,51.39242],[6.38267,51.3924],[6.38261,51.39238],[6.38257,51.39237],[6.38253,51.39236],[6.3825,51.39235],[6.38196,51.39221],[6.38179,51.39215],[6.38162,51.3921],[6.38151,51.39207],[6.38129,51.392],[6.38118,51.39196],[6.38102,51.3919],[6.38074,51.3918],[6.38048,51.39171],[6.38039,51.39167],[6.3803,51.39164],[6.38018,51.39158],[6.38005,51.39152],[6.37991,51.39146],[6.37988,51.39145],[6.3796,51.39133],[6.3795,51.39129],[6.37942,51.39124],[6.37863,51.39084],[6.37795,51.39049],[6.37753,51.39027],[6.37742,51.39021],[6.37731,51.39013],[6.37665,51.39053],[6.37647,51.39045],[6.37628,51.39035],[6.37603,51.39023],[6.37474,51.3894],[6.37498,51.38925],[6.37539,51.38903],[6.37436,51.38836],[6.37382,51.38805],[6.37363,51.38794],[6.37341,51.38782],[6.37307,51.38771],[6.37288,51.38766],[6.37185,51.38743],[6.37159,51.38737],[6.37121,51.38729],[6.37079,51.38718],[6.36939,51.3868],[6.36815,51.38672],[6.36753,51.38668],[6.36749,51.38667],[6.36744,51.38667],[6.36719,51.38667],[6.36642,51.38667],[6.3664,51.38667],[6.36609,51.38668],[6.36586,51.38667],[6.36578,51.38667],[6.36574,51.38667],[6.36563,51.38666],[6.36529,51.38665],[6.3652,51.38664],[6.36506,51.38664],[6.36505,51.38664],[6.36493,51.38664],[6.36291,51.38673],[6.36289,51.38673],[6.36286,51.38673],[6.36284,51.38672],[6.36149,51.38578],[6.36093,51.38427],[6.36094,51.38421],[6.36095,51.38419],[6.36094,51.38416],[6.36093,51.38411],[6.3609,51.38402],[6.36066,51.38329],[6.36066,51.38323],[6.36075,51.38311],[6.3603,51.38306],[6.3605,51.38206],[6.36058,51.38167],[6.36053,51.38094],[6.36052,51.3808],[6.36081,51.38015],[6.36094,51.3799],[6.361,51.37972],[6.36082,51.37944],[6.35868,51.37929],[6.35855,51.37928],[6.35849,51.37927],[6.35844,51.37927],[6.35816,51.37924],[6.35804,51.37933],[6.35775,51.37921],[6.35778,51.37917],[6.35762,51.37914],[6.35764,51.37909],[6.35768,51.37902],[6.35776,51.37883],[6.35787,51.37845],[6.35788,51.37841],[6.35801,51.37827],[6.35803,51.37819],[6.35801,51.37809],[6.35798,51.37794],[6.35799,51.37788],[6.358,51.37777],[6.35804,51.37745],[6.35804,51.37724],[6.35804,51.37721],[6.35804,51.37712],[6.35803,51.37703],[6.35802,51.37691],[6.358,51.3768],[6.35796,51.3766],[6.35794,51.37649],[6.35792,51.37641],[6.35789,51.37633],[6.35784,51.3762],[6.35764,51.3757],[6.35761,51.37562],[6.35711,51.37572],[6.35511,51.37613],[6.35507,51.37614],[6.35478,51.37617],[6.35456,51.37619],[6.35435,51.37621],[6.35416,51.37622],[6.35397,51.37624],[6.35378,51.37624],[6.35358,51.37624],[6.35338,51.37624],[6.35316,51.37624],[6.35295,51.37622],[6.35275,51.37621],[6.35255,51.37619],[6.35234,51.37616],[6.35213,51.37613],[6.35189,51.37608],[6.35164,51.37603],[6.35145,51.37598],[6.35127,51.37593],[6.3511,51.37589],[6.35095,51.37584],[6.35088,51.37582],[6.34986,51.3755],[6.34962,51.37542],[6.34939,51.37536],[6.34916,51.3753],[6.34893,51.37524],[6.34873,51.3752],[6.34851,51.37516],[6.34826,51.37512],[6.34791,51.37506],[6.34736,51.37502],[6.34714,51.37501],[6.3469,51.37499],[6.34675,51.37499],[6.34665,51.37499],[6.34602,51.375],[6.34593,51.375],[6.34547,51.37501],[6.34405,51.37505],[6.343,51.3751],[6.34095,51.37519],[6.34005,51.37522],[6.33957,51.37526],[6.33953,51.37527],[6.33905,51.37535],[6.3384,51.37551],[6.33831,51.37553],[6.33828,51.37554],[6.33827,51.37548],[6.33824,51.37541],[6.338,51.37549],[6.33688,51.37578],[6.33621,51.3759],[6.33585,51.37595],[6.33579,51.37596],[6.33509,51.37609],[6.33471,51.37615],[6.33448,51.37615],[6.33425,51.37617],[6.33395,51.37621],[6.33363,51.37627],[6.33351,51.37629],[6.3334,51.37631],[6.33327,51.37635],[6.33312,51.37639],[6.33297,51.37644],[6.33276,51.3765],[6.3323,51.37664],[6.33221,51.37659],[6.33217,51.37656],[6.33214,51.37653],[6.3321,51.37649],[6.33208,51.37642],[6.33207,51.37637],[6.33206,51.37634],[6.33206,51.37631],[6.33207,51.37629],[6.33208,51.37626],[6.3321,51.3762],[6.33213,51.37615],[6.33217,51.37609],[6.33229,51.37593],[6.33232,51.37588],[6.33235,51.37584],[6.33237,51.37578],[6.33237,51.37575],[6.33239,51.37571],[6.33238,51.37566],[6.33237,51.37562],[6.33234,51.37558],[6.33231,51.37554],[6.33229,51.37551],[6.33218,51.37537],[6.33173,51.37485],[6.33167,51.37477],[6.33151,51.37459],[6.33138,51.37443],[6.33128,51.37431],[6.33111,51.37411],[6.33103,51.37401],[6.33098,51.37394],[6.33094,51.37388],[6.3309,51.37382],[6.33088,51.37377],[6.33086,51.37372],[6.33085,51.37366],[6.33084,51.37359],[6.3308,51.3734],[6.3308,51.37338],[6.33075,51.37321],[6.33069,51.37306],[6.33067,51.37303],[6.33065,51.37299],[6.33062,51.37295],[6.33061,51.37294],[6.33059,51.37291],[6.3305,51.3728],[6.33046,51.37277],[6.3304,51.37271],[6.33035,51.37266],[6.3303,51.37261],[6.33024,51.37257],[6.33018,51.37253],[6.33016,51.37252],[6.33008,51.37248],[6.33001,51.37244],[6.32986,51.37236],[6.32977,51.37231],[6.32969,51.37226],[6.32961,51.3722],[6.32953,51.37214],[6.32946,51.37207],[6.32939,51.37201],[6.32917,51.37177],[6.32904,51.37166],[6.32867,51.37142],[6.32861,51.37138],[6.32846,51.37127],[6.32837,51.37118],[6.32829,51.3711],[6.32814,51.37096],[6.32799,51.3708],[6.32789,51.37071],[6.32784,51.37066],[6.32779,51.37062],[6.32775,51.37059],[6.32772,51.37057],[6.32769,51.37056],[6.3276,51.37053],[6.32742,51.37046],[6.32738,51.37044],[6.32729,51.3704],[6.32723,51.37037],[6.32719,51.37035],[6.32717,51.37033],[6.32715,51.37032],[6.32711,51.37026],[6.32701,51.37013],[6.32693,51.37002],[6.32691,51.36998],[6.32688,51.36995],[6.32685,51.36992],[6.32681,51.36989],[6.32674,51.36985],[6.32665,51.36979],[6.32661,51.36977],[6.32658,51.36976],[6.32642,51.3697],[6.3264,51.36969],[6.32639,51.36968],[6.32637,51.36966],[6.32635,51.36965],[6.32634,51.36962],[6.32632,51.36959],[6.32631,51.36955],[6.32631,51.36951],[6.32632,51.36943],[6.32632,51.36941],[6.32631,51.36939],[6.32631,51.36937],[6.3263,51.36936],[6.32627,51.36932],[6.32622,51.36927],[6.32621,51.36925],[6.32539,51.36843],[6.325,51.36805],[6.32449,51.36755],[6.32438,51.36744],[6.32436,51.36742],[6.3239,51.36697],[6.32389,51.36697],[6.32368,51.36676],[6.32358,51.36666],[6.32326,51.36634],[6.32262,51.36571],[6.32247,51.36555],[6.32236,51.36552],[6.32206,51.36547],[6.32193,51.36544],[6.32184,51.36537],[6.3213,51.36489],[6.32121,51.36481],[6.32121,51.3648],[6.3212,51.36479],[6.32119,51.36475],[6.32119,51.36467],[6.3212,51.36451],[6.32119,51.36449],[6.32118,51.36447],[6.32117,51.36445],[6.32115,51.36444],[6.32109,51.36439],[6.32081,51.36422],[6.32075,51.36419],[6.32068,51.36415],[6.3206,51.36411],[6.3205,51.36407],[6.3204,51.36403],[6.32031,51.364],[6.32022,51.36397],[6.32014,51.36394],[6.31946,51.36374],[6.31941,51.36373],[6.31936,51.36372],[6.31931,51.36371],[6.31927,51.36371],[6.3192,51.36371],[6.31908,51.36373],[6.31898,51.36374],[6.31891,51.36373],[6.31887,51.36373],[6.31882,51.36372],[6.31857,51.36364],[6.31849,51.36362],[6.31842,51.3636],[6.31837,51.36359],[6.31832,51.36359],[6.31827,51.36359],[6.31725,51.36366],[6.31707,51.36366],[6.31704,51.36367],[6.31701,51.36366],[6.31698,51.36366],[6.31695,51.36366],[6.31691,51.36364],[6.31685,51.36362],[6.31679,51.36359],[6.31676,51.36358],[6.31674,51.36356],[6.31672,51.36355],[6.31671,51.36353],[6.3167,51.3635],[6.31667,51.36344],[6.31664,51.36338],[6.31661,51.36334],[6.31659,51.3633],[6.31655,51.36326],[6.31651,51.36322],[6.31646,51.36318],[6.31641,51.36314],[6.31636,51.36311],[6.31631,51.36309],[6.31568,51.36282],[6.31561,51.3628],[6.31554,51.36279],[6.31547,51.36279],[6.31539,51.36278],[6.31534,51.36278],[6.31525,51.36279],[6.31499,51.36279],[6.3148,51.36279],[6.31463,51.36278],[6.31458,51.36278],[6.31355,51.36277],[6.3134,51.36272],[6.31337,51.3627],[6.31333,51.36268],[6.3133,51.36266],[6.31323,51.3626],[6.31319,51.36257],[6.31315,51.36254],[6.31303,51.36248],[6.31272,51.36231],[6.31209,51.36202],[6.31188,51.36193],[6.31147,51.36178],[6.31127,51.36171],[6.31122,51.3617],[6.31001,51.36134],[6.30978,51.36127],[6.30972,51.36125],[6.30968,51.36124],[6.30841,51.36086],[6.3083,51.36082],[6.30823,51.3608],[6.3082,51.36079],[6.30818,51.36078],[6.30816,51.36076],[6.30812,51.36073],[6.30799,51.36062],[6.30791,51.36055],[6.30788,51.36052],[6.30785,51.36051],[6.30781,51.36049],[6.30777,51.36047],[6.30772,51.36046],[6.30768,51.36044],[6.3076,51.36043],[6.3075,51.36042],[6.30621,51.36031],[6.30616,51.36031],[6.30483,51.36019],[6.30462,51.36015],[6.30404,51.36],[6.30382,51.35995],[6.30372,51.35992],[6.3032,51.35979],[6.30291,51.35977],[6.3019,51.3597],[6.30181,51.3597],[6.30156,51.35968],[6.30151,51.35968],[6.30077,51.35983],[6.30073,51.35984],[6.3007,51.35984],[6.30015,51.35981],[6.29962,51.35977],[6.29898,51.35972],[6.29892,51.35972],[6.29827,51.35971],[6.29768,51.3597],[6.29761,51.3597],[6.29754,51.35969],[6.29751,51.35969],[6.29746,51.3597],[6.29738,51.3597],[6.29722,51.35971],[6.29703,51.35974],[6.29691,51.35974],[6.29679,51.35975],[6.29673,51.35975],[6.29664,51.35974],[6.29582,51.35971],[6.29577,51.35971],[6.29448,51.35965],[6.29318,51.3596],[6.29309,51.3596],[6.29304,51.3596],[6.29299,51.3596],[6.29293,51.35961],[6.29287,51.35963],[6.29282,51.35964],[6.29188,51.35987],[6.29175,51.35989],[6.29173,51.3599],[6.29171,51.3599],[6.29165,51.35991],[6.2916,51.35991],[6.29156,51.35992],[6.29143,51.35992],[6.29128,51.35992],[6.29013,51.35992],[6.28895,51.36005],[6.28889,51.36004],[6.28689,51.35993],[6.2868,51.35992],[6.28669,51.35991],[6.2866,51.35989],[6.28651,51.35986],[6.28593,51.35968],[6.2859,51.35967],[6.28587,51.35966],[6.28579,51.35965],[6.28571,51.35964],[6.28555,51.35964],[6.28547,51.35963],[6.28541,51.35962],[6.28538,51.35962],[6.28535,51.35961],[6.28533,51.3596],[6.28531,51.35959],[6.2853,51.35958],[6.28529,51.35956],[6.28528,51.35954],[6.28527,51.35952],[6.28519,51.35932],[6.28517,51.35927],[6.28515,51.35924],[6.28512,51.3592],[6.28509,51.35917],[6.28505,51.35914],[6.285,51.35912],[6.28494,51.35909],[6.28485,51.35904],[6.28475,51.359],[6.28472,51.35899],[6.28468,51.35898],[6.28465,51.35897],[6.28461,51.35896],[6.28456,51.35896],[6.28452,51.35896],[6.28419,51.35895],[6.28409,51.35895],[6.28399,51.35895],[6.28393,51.35894],[6.28391,51.35894],[6.28389,51.35894],[6.28388,51.35893],[6.28388,51.35892],[6.28388,51.35891],[6.28389,51.35889],[6.28393,51.35885],[6.28396,51.3588],[6.284,51.35875],[6.28404,51.35869],[6.28405,51.35867],[6.28406,51.35865],[6.28406,51.35862],[6.28406,51.35859],[6.28405,51.35856],[6.28404,51.35852],[6.28403,51.35849],[6.28401,51.35846],[6.28399,51.35843],[6.28397,51.3584],[6.2839,51.35833],[6.28389,51.35833],[6.28387,51.35832],[6.28385,51.35832],[6.28384,51.35832],[6.28382,51.35832],[6.28379,51.35833],[6.28377,51.35834],[6.28373,51.35835],[6.2837,51.35837],[6.28368,51.35838],[6.28366,51.3584],[6.28357,51.35852],[6.28355,51.35854],[6.28353,51.35855],[6.28351,51.35855],[6.28348,51.35855],[6.28346,51.35854],[6.28344,51.35853],[6.28322,51.35836],[6.28319,51.35834],[6.28316,51.35833],[6.28314,51.35832],[6.28312,51.35832],[6.2831,51.35832],[6.28308,51.35833],[6.28306,51.35833],[6.28304,51.35834],[6.28302,51.35836],[6.28298,51.35841],[6.28296,51.35843],[6.28271,51.35858],[6.28269,51.35859],[6.28266,51.3586],[6.28263,51.3586],[6.28261,51.3586],[6.28259,51.35859],[6.28258,51.35858],[6.28257,51.35856],[6.28256,51.35854],[6.28255,51.3585],[6.28254,51.35842],[6.28254,51.35839],[6.28253,51.35837],[6.28251,51.35835],[6.28249,51.35834],[6.28247,51.35833],[6.28244,51.35832],[6.2824,51.35832],[6.2823,51.35831],[6.28226,51.35831],[6.28223,51.3583],[6.28221,51.35829],[6.2822,51.35828],[6.28219,51.35826],[6.28219,51.35823],[6.2822,51.3582],[6.28223,51.35815],[6.28224,51.35812],[6.28224,51.35809],[6.28224,51.35807],[6.28223,51.35804],[6.28222,51.35803],[6.28221,51.35802],[6.28219,51.35801],[6.28218,51.358],[6.28216,51.358],[6.28214,51.35801],[6.28213,51.35802],[6.28211,51.35802],[6.2821,51.35804],[6.28209,51.35805],[6.28207,51.35809],[6.28206,51.35811],[6.28204,51.35813],[6.28201,51.35815],[6.28198,51.35816],[6.28197,51.35816],[6.28196,51.35816],[6.28194,51.35816],[6.28192,51.35815],[6.28191,51.35814],[6.2819,51.35813],[6.28189,51.35811],[6.28189,51.35809],[6.28189,51.35802],[6.28189,51.35801],[6.28188,51.35801],[6.28187,51.358],[6.28185,51.358],[6.28179,51.35801],[6.28174,51.35802],[6.2817,51.35802],[6.28168,51.35801],[6.28165,51.358],[6.28163,51.35799],[6.28162,51.35798],[6.28139,51.35778],[6.28136,51.35775],[6.28132,51.35772],[6.28128,51.3577],[6.28124,51.35768],[6.28119,51.35766],[6.28115,51.35765],[6.2811,51.35764],[6.28106,51.35764],[6.28104,51.35765],[6.28102,51.35766],[6.28093,51.35769],[6.28089,51.35771],[6.28086,51.35771],[6.28082,51.35771],[6.2807,51.35772],[6.28066,51.35772],[6.28063,51.35772],[6.28061,51.35773],[6.28058,51.35774],[6.28055,51.35776],[6.28054,51.35778],[6.28048,51.35784],[6.28045,51.35788],[6.28042,51.35789],[6.2804,51.35791],[6.28038,51.35791],[6.28037,51.35791],[6.28035,51.35791],[6.28034,51.3579],[6.28033,51.35789],[6.28031,51.35786],[6.28025,51.35779],[6.28023,51.35776],[6.28022,51.35773],[6.28022,51.35771],[6.28022,51.35763],[6.28022,51.35757],[6.28022,51.35756],[6.28021,51.35755],[6.28021,51.35753],[6.2802,51.35753],[6.28018,51.35752],[6.28017,51.35751],[6.28015,51.35751],[6.28013,51.3575],[6.28006,51.3575],[6.28001,51.35749],[6.2799,51.35747],[6.27986,51.35746],[6.27982,51.35746],[6.27978,51.35746],[6.2796,51.35747],[6.27952,51.35747],[6.27949,51.35747],[6.27946,51.35746],[6.27943,51.35746],[6.27941,51.35745],[6.2794,51.35744],[6.27939,51.35743],[6.27938,51.35742],[6.27937,51.3574],[6.27938,51.35734],[6.27937,51.35732],[6.27937,51.35729],[6.27935,51.35727],[6.27933,51.35725],[6.27931,51.35724],[6.2793,51.35724],[6.27928,51.35724],[6.27927,51.35724],[6.27925,51.35724],[6.2792,51.35724],[6.27915,51.35725],[6.27899,51.35729],[6.27893,51.3573],[6.27887,51.35731],[6.27881,51.35731],[6.2787,51.3573],[6.27844,51.3573],[6.27841,51.3573],[6.27839,51.35729],[6.27837,51.35728],[6.27835,51.35728],[6.27832,51.35725],[6.27825,51.3572],[6.27823,51.35718],[6.2782,51.35717],[6.27818,51.35715],[6.27815,51.35715],[6.27813,51.35715],[6.27809,51.35715],[6.27799,51.35715],[6.27796,51.35715],[6.27793,51.35715],[6.27791,51.35714],[6.27789,51.35713],[6.27783,51.3571],[6.27742,51.35689],[6.27726,51.35681],[6.27709,51.35674],[6.27698,51.35668],[6.27689,51.35665],[6.27686,51.35664],[6.27684,51.35663],[6.27677,51.35661],[6.27668,51.35659],[6.27654,51.35657],[6.27639,51.35654],[6.27628,51.35652],[6.27618,51.35652],[6.27611,51.35652],[6.27607,51.35652],[6.27604,51.35652],[6.276,51.35653],[6.27597,51.35654],[6.27588,51.35657],[6.27585,51.35657],[6.27582,51.35658],[6.27569,51.35658],[6.27563,51.35658],[6.27546,51.35658],[6.2754,51.35658],[6.27533,51.35657],[6.27517,51.35656],[6.27506,51.35655],[6.27497,51.35654],[6.27488,51.35652],[6.27481,51.35651],[6.27475,51.35649],[6.2747,51.35647],[6.27467,51.35644],[6.27464,51.35642],[6.27462,51.35639],[6.27461,51.35636],[6.2746,51.35633],[6.2746,51.35628],[6.2746,51.35626],[6.27459,51.35625],[6.27458,51.35624],[6.27457,51.35623],[6.27452,51.3562],[6.27449,51.35619],[6.27447,51.35618],[6.27445,51.35617],[6.27443,51.35617],[6.27378,51.35614],[6.27373,51.35614],[6.27367,51.35615],[6.27362,51.35615],[6.27357,51.35616],[6.27349,51.35618],[6.2734,51.3562],[6.27335,51.35621],[6.27332,51.35621],[6.2733,51.35621],[6.27328,51.35621],[6.27326,51.3562],[6.27323,51.35619],[6.2732,51.35616],[6.27318,51.35615],[6.27313,51.35611],[6.27308,51.35607],[6.27299,51.35603],[6.27289,51.35598],[6.27285,51.35596],[6.27271,51.3559],[6.27265,51.35588],[6.27259,51.35586],[6.27251,51.35584],[6.27244,51.35583],[6.27237,51.35582],[6.27231,51.35582],[6.27216,51.35583],[6.27212,51.35582],[6.27208,51.35582],[6.27158,51.35571],[6.27155,51.35571],[6.27152,51.35571],[6.27149,51.35571],[6.27146,51.35571],[6.27141,51.35571],[6.2713,51.35574],[6.27125,51.35574],[6.2712,51.35575],[6.27114,51.35575],[6.27109,51.35575],[6.27104,51.35574],[6.27099,51.35573],[6.27094,51.35572],[6.2709,51.35571],[6.27085,51.35569],[6.27066,51.35563],[6.27057,51.35559],[6.26994,51.35536],[6.26989,51.35534],[6.26977,51.35529],[6.26973,51.35527],[6.26969,51.35526],[6.26966,51.35526],[6.26961,51.35526],[6.26946,51.35527],[6.2694,51.35527],[6.26936,51.35526],[6.26932,51.35526],[6.2692,51.35524],[6.26872,51.35514],[6.26825,51.35499],[6.26813,51.35495],[6.26779,51.35493],[6.26776,51.35493],[6.26772,51.35492],[6.26769,51.35491],[6.26761,51.35487],[6.26757,51.35486],[6.26754,51.35485],[6.2675,51.35485],[6.26746,51.35484],[6.26742,51.35484],[6.26736,51.35485],[6.2673,51.35486],[6.26707,51.35492],[6.26703,51.35493],[6.26699,51.35494],[6.26694,51.35494],[6.26687,51.35495],[6.26682,51.35494],[6.26677,51.35494],[6.26673,51.35494],[6.2667,51.35493],[6.26659,51.35491],[6.26656,51.3549],[6.26653,51.3549],[6.26638,51.35491],[6.26628,51.35492],[6.26619,51.35493],[6.26609,51.35494],[6.266,51.35496],[6.26593,51.35498],[6.2659,51.35498],[6.26588,51.35499],[6.26584,51.35499],[6.26582,51.35499],[6.26581,51.355],[6.2658,51.35501],[6.2658,51.35503],[6.2658,51.35505],[6.26583,51.35512],[6.26584,51.35514],[6.26584,51.35515],[6.26584,51.35516],[6.26583,51.35516],[6.26582,51.35517],[6.26538,51.35542],[6.26515,51.35545],[6.26509,51.35548],[6.26468,51.35568],[6.26465,51.35569],[6.26461,51.35571],[6.26457,51.35572],[6.26452,51.35573],[6.26434,51.35576],[6.26425,51.35578],[6.26409,51.35581],[6.26405,51.35582],[6.26402,51.35584],[6.26399,51.35586],[6.26395,51.35589],[6.26391,51.35594],[6.26387,51.35596],[6.26384,51.35598],[6.2638,51.35599],[6.26376,51.356],[6.2637,51.356],[6.26348,51.35599],[6.26316,51.35606],[6.26308,51.35608],[6.26306,51.35608],[6.26303,51.35608],[6.26299,51.35608],[6.26295,51.35607],[6.26287,51.35607],[6.26285,51.35606],[6.26282,51.35607],[6.2628,51.35607],[6.26278,51.35607],[6.26276,51.35608],[6.26275,51.35609],[6.26263,51.35618],[6.26267,51.35626],[6.26347,51.35654],[6.2638,51.35666],[6.26353,51.35672],[6.26292,51.35705],[6.26264,51.35719],[6.26217,51.35749],[6.26144,51.35806],[6.26098,51.35851],[6.26036,51.35913],[6.2583,51.36124],[6.25824,51.3613],[6.25781,51.36178],[6.25775,51.36184],[6.25756,51.36204],[6.25755,51.36207],[6.25753,51.36209],[6.25713,51.36213],[6.2548,51.36243],[6.2546,51.36246],[6.24878,51.36322],[6.24388,51.36385],[6.24319,51.36394],[6.24309,51.36395],[6.24306,51.36389],[6.24299,51.3639],[6.24111,51.36416],[6.23887,51.36446],[6.23743,51.36466],[6.23608,51.36484],[6.22907,51.36575],[6.22768,51.36592],[6.22485,51.3651],[6.22474,51.36507],[6.22441,51.36499],[6.2245,51.3648],[6.2245,51.36478],[6.2247,51.36431],[6.22519,51.36316],[6.2254,51.36266],[6.22542,51.36261],[6.2258,51.36172],[6.2259,51.36149],[6.22639,51.36034],[6.22486,51.35946],[6.22453,51.35928],[6.22443,51.35922],[6.2242,51.35909],[6.22386,51.35889],[6.22166,51.35764],[6.22142,51.3575],[6.22112,51.35733],[6.21881,51.35601],[6.21763,51.35533],[6.21758,51.3553],[6.21742,51.35522],[6.21707,51.35502],[6.21649,51.35469],[6.21579,51.35428],[6.21508,51.35388],[6.21307,51.35273],[6.21205,51.35215],[6.21174,51.35197],[6.20929,51.35057],[6.20929,51.35057],[6.20691,51.34921],[6.20336,51.34718],[6.20326,51.34712],[6.20319,51.34709],[6.20194,51.34637],[6.20006,51.3453],[6.1968,51.34343],[6.19611,51.34304],[6.19598,51.34296],[6.19571,51.3428],[6.19503,51.34242],[6.19465,51.3422],[6.19444,51.34208],[6.19429,51.34199],[6.19428,51.34199],[6.19423,51.34196],[6.19412,51.3419],[6.19411,51.34189],[6.19399,51.34182],[6.193,51.34126],[6.19299,51.34125],[6.19264,51.34105],[6.19259,51.34102],[6.19253,51.34099],[6.19243,51.34093],[6.19194,51.34065],[6.19192,51.34064],[6.19188,51.34061],[6.19175,51.34054],[6.19168,51.3405],[6.19074,51.33996],[6.18995,51.3395],[6.18991,51.33948],[6.18988,51.33946],[6.19031,51.33902],[6.19037,51.33894],[6.19083,51.33843],[6.19097,51.33832],[6.191,51.33829],[6.19129,51.33801],[6.19151,51.33776],[6.19155,51.33771],[6.19156,51.3377],[6.19158,51.33768],[6.19173,51.33749],[6.19182,51.3374],[6.19221,51.33697],[6.19249,51.33664],[6.19281,51.33626],[6.19322,51.33578],[6.19345,51.33559],[6.19363,51.33544],[6.19381,51.3353],[6.19382,51.33529],[6.19397,51.33517],[6.19402,51.33512],[6.19423,51.33488],[6.19347,51.33474],[6.19235,51.33467],[6.19091,51.33494],[6.19041,51.33497],[6.18878,51.33505],[6.1883,51.33507],[6.18694,51.33488],[6.18539,51.33466],[6.18536,51.33465],[6.18425,51.3344],[6.1831,51.33414],[6.18184,51.33402],[6.18072,51.33392],[6.18022,51.33387],[6.17895,51.33358],[6.1789,51.33357],[6.17897,51.33346],[6.17828,51.33324],[6.17824,51.33322],[6.17808,51.33341],[6.17802,51.3334],[6.17536,51.33317],[6.17443,51.33308],[6.17413,51.33306],[6.17262,51.33314],[6.17136,51.33321],[6.17086,51.33317],[6.17059,51.33314],[6.17058,51.33314],[6.17026,51.33312],[6.17022,51.33311],[6.16995,51.33309],[6.16976,51.33308],[6.16964,51.33306],[6.16957,51.33306],[6.16921,51.33303],[6.1689,51.333],[6.16861,51.33298],[6.16855,51.33299],[6.16843,51.3326],[6.16832,51.33228],[6.16824,51.33202],[6.16819,51.3319],[6.16825,51.33145],[6.16829,51.33137],[6.16849,51.33094],[6.16853,51.3309],[6.16888,51.3305],[6.16893,51.33043],[6.16894,51.33041],[6.16899,51.33033],[6.16906,51.33021],[6.16911,51.33014],[6.16913,51.33011],[6.16923,51.32988],[6.16932,51.32956],[6.16934,51.3295],[6.16934,51.3295],[6.16938,51.32937],[6.16936,51.32936],[6.16934,51.32934],[6.16824,51.32845],[6.16708,51.32751],[6.16642,51.32714],[6.16637,51.32711],[6.16633,51.32709],[6.16632,51.32708],[6.16597,51.32688],[6.16579,51.32675],[6.16539,51.32645],[6.16439,51.3257],[6.16419,51.32555],[6.16418,51.32554],[6.16416,51.32552],[6.16414,51.32549],[6.16316,51.32431],[6.16311,51.32425],[6.16211,51.32304],[6.16209,51.32302],[6.1616,51.3216],[6.16159,51.32159],[6.16155,51.32155],[6.16153,51.32154],[6.16003,51.32011],[6.15959,51.31969],[6.15959,51.31968],[6.15958,51.31948],[6.15954,51.3186],[6.15951,51.31768],[6.15948,51.3171],[6.15946,51.31668],[6.15945,51.31628],[6.15945,51.31627],[6.15944,51.31618],[6.15943,51.3158],[6.15942,51.31572],[6.15942,51.31564],[6.15919,51.31545],[6.15917,51.31543],[6.15755,51.31409],[6.15633,51.31308],[6.15617,51.31295],[6.15595,51.31276],[6.15553,51.31242],[6.15529,51.31213],[6.15487,51.3116],[6.15449,51.3113],[6.15424,51.31112],[6.15423,51.31103],[6.15422,51.31049],[6.1542,51.30974],[6.15419,51.30961],[6.15411,51.30913],[6.15411,51.30911],[6.15411,51.30909],[6.15382,51.30745],[6.15373,51.30735],[6.15372,51.30734],[6.15299,51.30655],[6.15171,51.30519],[6.15072,51.30413],[6.15071,51.30411],[6.15068,51.30408],[6.14955,51.30288],[6.14717,51.30032],[6.14714,51.30028],[6.14562,51.29864],[6.14557,51.29857],[6.14514,51.29812],[6.14478,51.29784],[6.14456,51.29767],[6.14431,51.29748],[6.14422,51.29741],[6.14416,51.29736],[6.14414,51.29734],[6.14354,51.29688],[6.1434,51.29678],[6.14325,51.29666],[6.1425,51.29608],[6.14237,51.29598],[6.14208,51.29577],[6.14171,51.29547],[6.14165,51.29543],[6.14148,51.2953],[6.14138,51.29522],[6.14128,51.29515],[6.1407,51.2947],[6.14069,51.29469],[6.14063,51.29465],[6.14063,51.29465],[6.14058,51.29461],[6.1405,51.29454],[6.14045,51.29451],[6.13984,51.29404],[6.13983,51.29403],[6.13972,51.29395],[6.13935,51.29366],[6.13925,51.29358],[6.13884,51.29326],[6.13874,51.29319],[6.13851,51.29301],[6.13847,51.29299],[6.13844,51.29296],[6.13781,51.29248],[6.13763,51.29234],[6.13736,51.29213],[6.13609,51.29115],[6.1359,51.29101],[6.13519,51.29046],[6.13483,51.29018],[6.13447,51.2899],[6.13412,51.28963],[6.13393,51.28949],[6.13375,51.28935],[6.13339,51.28907],[6.13304,51.2888],[6.13269,51.28854],[6.1325,51.28838],[6.13232,51.28825],[6.13197,51.28798],[6.13179,51.28784],[6.13162,51.28771],[6.13126,51.28743],[6.13108,51.28729],[6.13091,51.28716],[6.13055,51.28688],[6.12983,51.28633],[6.12975,51.28627],[6.12965,51.28619],[6.12947,51.28605],[6.12901,51.2857],[6.12878,51.28525],[6.12863,51.28496],[6.12855,51.28482],[6.12831,51.28436],[6.12831,51.28435],[6.12808,51.28391],[6.12785,51.28347],[6.12762,51.28303],[6.1276,51.28299],[6.12737,51.28256],[6.12704,51.28191],[6.12691,51.28168],[6.12688,51.28162],[6.12655,51.28099],[6.12585,51.27965],[6.1254,51.27879],[6.12535,51.27869],[6.12476,51.27755],[6.12462,51.27605],[6.12455,51.27531],[6.1245,51.27473],[6.12444,51.27469],[6.12439,51.27465],[6.12258,51.27339],[6.12022,51.27173],[6.11984,51.27147],[6.1198,51.27144],[6.1188,51.27074],[6.11876,51.27072],[6.11817,51.27031],[6.11765,51.26994],[6.11687,51.26939],[6.11603,51.26881],[6.11589,51.26871],[6.11584,51.26868],[6.1158,51.26864],[6.11397,51.26737],[6.11253,51.26636],[6.11247,51.26633],[6.112,51.266],[6.11186,51.2659],[6.11183,51.26588],[6.11144,51.2656],[6.10993,51.26455],[6.1095,51.26425],[6.10923,51.26406],[6.10796,51.26317],[6.10717,51.26262],[6.10709,51.26256],[6.10531,51.26132],[6.10449,51.26076],[6.10396,51.26038],[6.10342,51.26002],[6.10334,51.25996],[6.1033,51.25993],[6.10321,51.25987],[6.10316,51.25984],[6.10251,51.25938],[6.10221,51.25917],[6.10193,51.25898],[6.10178,51.25887],[6.10077,51.25817],[6.10071,51.25813],[6.09911,51.25702],[6.09856,51.25663],[6.09855,51.25662],[6.0985,51.25659],[6.09764,51.25599],[6.09696,51.25552],[6.09644,51.25516],[6.09633,51.25508],[6.09511,51.25423],[6.09504,51.25418],[6.09503,51.25418],[6.09459,51.25387],[6.09324,51.25293],[6.09319,51.2529],[6.09263,51.2525],[6.09208,51.25212],[6.09202,51.25208],[6.09132,51.2516],[6.09127,51.25156],[6.09056,51.25107],[6.09048,51.25101],[6.09041,51.25096],[6.08933,51.25021],[6.08925,51.25015],[6.08861,51.24971],[6.08817,51.2494],[6.08813,51.24937],[6.0867,51.24838],[6.08664,51.24834],[6.08564,51.24764],[6.08562,51.24763],[6.08237,51.24636],[6.07911,51.24508],[6.07586,51.24381],[6.07384,51.24302],[6.07266,51.24255],[6.07291,51.24218],[6.07378,51.24092],[6.07384,51.24085],[6.07417,51.24036],[6.07428,51.2402],[6.0755,51.23845],[6.07622,51.23747],[6.0763,51.23735],[6.07685,51.23658],[6.0774,51.2358],[6.07742,51.23578],[6.07747,51.23571],[6.07762,51.23549],[6.07767,51.23542],[6.07847,51.23429],[6.0793,51.23312],[6.0796,51.2327],[6.08002,51.23211],[6.08056,51.23134],[6.08097,51.23076],[6.08106,51.23064],[6.08111,51.23056],[6.08115,51.23051],[6.08119,51.23045],[6.0812,51.23043],[6.08154,51.22996],[6.08171,51.22971],[6.08174,51.22967],[6.08183,51.22954],[6.08227,51.22892],[6.08337,51.22736],[6.0834,51.22732],[6.08343,51.22728],[6.08354,51.22712],[6.08379,51.22668],[6.0845,51.22541],[6.08451,51.22537],[6.08464,51.22514],[6.08602,51.22267],[6.08359,51.22204],[6.08244,51.22226],[6.08096,51.22244],[6.0792,51.22248],[6.07326,51.22243],[6.07069,51.22208],[6.06799,51.22055],[6.06808,51.21912],[6.06809,51.21906],[6.0681,51.21894],[6.06828,51.21619],[6.06835,51.21516],[6.06847,51.21335],[6.06949,51.21321],[6.06989,51.2098],[6.06989,51.20979],[6.0699,51.2097],[6.07006,51.20838],[6.07006,51.20832],[6.07013,51.20774],[6.07022,51.20696],[6.07041,51.20537],[6.07049,51.20471],[6.07086,51.20156],[6.07095,51.20073],[6.07096,51.2007],[6.07096,51.20067],[6.07096,51.20063],[6.07097,51.2006],[6.07097,51.20054],[6.07098,51.20048],[6.07099,51.20041],[6.07099,51.2004],[6.071,51.20035],[6.071,51.20033],[6.07102,51.20011],[6.07102,51.20011],[6.07103,51.20007],[6.07104,51.2],[6.07106,51.1998],[6.07106,51.1998],[6.07129,51.1978],[6.07148,51.19629],[6.07154,51.1958],[6.07155,51.19573],[6.07181,51.19365],[6.07202,51.19194],[6.07202,51.1919],[6.07229,51.18973],[6.07229,51.1897],[6.07233,51.18937],[6.07261,51.18717],[6.07288,51.18497],[6.07291,51.18473],[6.07315,51.18279],[6.07485,51.18101],[6.07682,51.17896],[6.07702,51.17874],[6.07712,51.17865],[6.07851,51.17719],[6.07877,51.1768],[6.07881,51.17675],[6.07895,51.17653],[6.07905,51.17638],[6.07961,51.17554],[6.08017,51.17468],[6.08019,51.17466],[6.0803,51.1745],[6.08066,51.17394],[6.08106,51.17334],[6.08149,51.17268],[6.08153,51.17262],[6.08159,51.17254],[6.08198,51.17195],[6.08211,51.17174],[6.08219,51.17163],[6.08477,51.1713],[6.08686,51.17103],[6.08741,51.17096],[6.08763,51.17093],[6.08768,51.17095],[6.08772,51.17096],[6.08777,51.17094],[6.08783,51.17095],[6.08786,51.17094],[6.08786,51.17091],[6.08789,51.17087],[6.08786,51.17079],[6.08799,51.17084],[6.08802,51.17089],[6.08806,51.17088],[6.08804,51.17082],[6.08808,51.17078],[6.08809,51.17075],[6.08812,51.17075],[6.08812,51.17079],[6.08822,51.1708],[6.0884,51.17084],[6.0884,51.1708],[6.08843,51.17077],[6.0884,51.17073],[6.08845,51.17073],[6.08849,51.17081],[6.08853,51.17081],[6.08854,51.17074],[6.08857,51.17073],[6.08862,51.17077],[6.08866,51.17077],[6.08869,51.17074],[6.08886,51.17073],[6.08895,51.17077],[6.08888,51.17086],[6.08891,51.17088],[6.08895,51.17085],[6.08898,51.17086],[6.089,51.17092],[6.08925,51.171],[6.08929,51.17099],[6.08929,51.17092],[6.0892,51.17091],[6.08923,51.17086],[6.0892,51.17076],[6.08908,51.1707],[6.08907,51.17061],[6.0891,51.17057],[6.08927,51.17057],[6.08935,51.17054],[6.0894,51.17056],[6.08944,51.1706],[6.08952,51.17061],[6.08962,51.17058],[6.08967,51.17047],[6.08964,51.17041],[6.08978,51.17043],[6.08985,51.17041],[6.08995,51.1704],[6.08999,51.17037],[6.09002,51.17039],[6.09,51.17041],[6.08995,51.17043],[6.08997,51.17048],[6.09,51.17049],[6.09002,51.17047],[6.09005,51.17047],[6.09006,51.1705],[6.09011,51.1705],[6.0902,51.17047],[6.09017,51.17042],[6.09024,51.17042],[6.0903,51.17041],[6.09035,51.17041],[6.09038,51.17044],[6.09033,51.17047],[6.09038,51.17051],[6.09046,51.17052],[6.09047,51.17057],[6.09049,51.1706],[6.09053,51.17061],[6.09058,51.17054],[6.09056,51.17047],[6.09076,51.17049],[6.09082,51.17048],[6.09093,51.17051],[6.09095,51.17054],[6.09083,51.17064],[6.09089,51.17068],[6.09084,51.17075],[6.09079,51.17077],[6.09077,51.1708],[6.09078,51.17081],[6.09086,51.1708],[6.09093,51.1708],[6.09096,51.17075],[6.09106,51.17079],[6.09117,51.17077],[6.09116,51.17072],[6.09119,51.17072],[6.09124,51.17077],[6.09132,51.17075],[6.09141,51.17078],[6.09147,51.17076],[6.09142,51.17074],[6.09143,51.17072],[6.09151,51.17069],[6.09149,51.17066],[6.09143,51.17068],[6.09141,51.17065],[6.09143,51.17056],[6.09152,51.17056],[6.09154,51.17053],[6.09183,51.17054],[6.09175,51.1706],[6.09179,51.17061],[6.09186,51.1706],[6.09187,51.17063],[6.09194,51.17062],[6.09197,51.1707],[6.09208,51.17072],[6.09227,51.17066],[6.09231,51.17059],[6.09225,51.17057],[6.09217,51.17064],[6.09203,51.17064],[6.09205,51.1706],[6.092,51.17058],[6.09202,51.17052],[6.09208,51.17051],[6.09205,51.17045],[6.09225,51.17038],[6.09231,51.17039],[6.0924,51.17038],[6.09245,51.1704],[6.09258,51.1704],[6.09269,51.17042],[6.09278,51.17047],[6.0928,51.17049],[6.09271,51.17051],[6.09275,51.17053],[6.09267,51.17055],[6.09258,51.17059],[6.09258,51.17061],[6.09267,51.17061],[6.09276,51.17063],[6.09278,51.17065],[6.09282,51.17063],[6.09283,51.1706],[6.0929,51.17063],[6.09288,51.17067],[6.09291,51.17069],[6.09303,51.17065],[6.09306,51.17066],[6.09309,51.17064],[6.09303,51.17062],[6.093,51.17054],[6.09308,51.17052],[6.09312,51.17059],[6.09319,51.17053],[6.09323,51.17047],[6.0933,51.17046],[6.09332,51.17043],[6.0934,51.17045],[6.09354,51.17039],[6.09359,51.17041],[6.09367,51.17039],[6.09382,51.17039],[6.09384,51.17043],[6.09402,51.17047],[6.09404,51.1705],[6.09402,51.17053],[6.09404,51.1706],[6.09409,51.17062],[6.09411,51.17057],[6.09423,51.17059],[6.09417,51.17063],[6.09422,51.17067],[6.09412,51.17068],[6.09408,51.17072],[6.09411,51.17074],[6.09418,51.17074],[6.09424,51.17079],[6.09434,51.17077],[6.09438,51.17073],[6.09444,51.17063],[6.09453,51.17064],[6.09455,51.17068],[6.09464,51.17066],[6.09464,51.17061],[6.09475,51.17068],[6.0947,51.17071],[6.09471,51.17074],[6.09479,51.17072],[6.09485,51.17074],[6.09479,51.17079],[6.09482,51.17081],[6.09488,51.1708],[6.09495,51.17082],[6.09502,51.17078],[6.09507,51.17079],[6.09506,51.17085],[6.0951,51.17088],[6.09503,51.1709],[6.09512,51.17095],[6.0952,51.17091],[6.09524,51.17092],[6.09523,51.17097],[6.09525,51.17103],[6.09521,51.17103],[6.09522,51.17107],[6.09526,51.17108],[6.09535,51.17109],[6.09542,51.17108],[6.09536,51.17103],[6.09543,51.17102],[6.09545,51.17097],[6.09557,51.17097],[6.09561,51.17094],[6.09558,51.17107],[6.09552,51.17109],[6.09553,51.17113],[6.09555,51.17115],[6.0956,51.17112],[6.09571,51.17111],[6.09575,51.17108],[6.09583,51.1711],[6.0959,51.17114],[6.09598,51.17112],[6.09602,51.17108],[6.09596,51.17104],[6.09597,51.17101],[6.09601,51.17099],[6.09603,51.17102],[6.0961,51.17099],[6.09622,51.17101],[6.09632,51.17093],[6.09643,51.17094],[6.09653,51.17091],[6.09653,51.17086],[6.09659,51.17082],[6.09645,51.17075],[6.09639,51.17077],[6.09635,51.17076],[6.09631,51.17079],[6.09625,51.17076],[6.09621,51.17078],[6.09614,51.17075],[6.09614,51.17071],[6.09624,51.17071],[6.09631,51.17069],[6.0964,51.1707],[6.09647,51.17068],[6.0965,51.17065],[6.09659,51.17062],[6.09664,51.17065],[6.0967,51.17063],[6.09675,51.1707],[6.09683,51.17074],[6.09686,51.17069],[6.09688,51.17066],[6.09696,51.17065],[6.09697,51.17072],[6.09701,51.17072],[6.09701,51.17066],[6.09713,51.17073],[6.09715,51.17079],[6.09719,51.17079],[6.09723,51.17075],[6.09719,51.17068],[6.09726,51.17064],[6.09716,51.17061],[6.09718,51.17057],[6.09731,51.17053],[6.09739,51.17059],[6.09748,51.17057],[6.09759,51.17059],[6.09767,51.17056],[6.09785,51.17053],[6.09797,51.17045],[6.09798,51.1704],[6.09788,51.17034],[6.098,51.17024],[6.09809,51.17027],[6.09812,51.17034],[6.09833,51.1703],[6.09836,51.17025],[6.09836,51.17019],[6.09849,51.17016],[6.09878,51.17015],[6.09891,51.1701],[6.099,51.1701],[6.0991,51.17004],[6.09922,51.17002],[6.09957,51.16987],[6.09973,51.16984],[6.1,51.16986],[6.1001,51.16987],[6.10011,51.16993],[6.10016,51.16996],[6.10028,51.16994],[6.10031,51.16999],[6.10031,51.17004],[6.10048,51.17004],[6.10065,51.17011],[6.10071,51.17027],[6.10064,51.17034],[6.10065,51.17043],[6.10058,51.17048],[6.10059,51.17053],[6.10061,51.17059],[6.10048,51.1707],[6.10067,51.17083],[6.1006,51.17088],[6.10063,51.17092],[6.10069,51.17095],[6.10075,51.17094],[6.1008,51.17091],[6.10088,51.17093],[6.10089,51.17086],[6.10095,51.17086],[6.10095,51.17089],[6.101,51.17089],[6.10105,51.17092],[6.10112,51.1709],[6.10115,51.17094],[6.10106,51.17097],[6.10115,51.17102],[6.10124,51.171],[6.10122,51.17114],[6.10126,51.17116],[6.10133,51.17114],[6.10138,51.17116],[6.10145,51.17123],[6.10151,51.1712],[6.10154,51.17121],[6.10148,51.17126],[6.10152,51.17127],[6.10145,51.17132],[6.10145,51.17138],[6.10161,51.17144],[6.10166,51.17142],[6.10174,51.17142],[6.10187,51.17146],[6.10188,51.17149],[6.10192,51.17148],[6.10198,51.17149],[6.10202,51.17147],[6.10206,51.1715],[6.10201,51.17151],[6.10203,51.17153],[6.10204,51.17157],[6.1021,51.17161],[6.10206,51.17162],[6.10208,51.17166],[6.1021,51.17167],[6.10213,51.17163],[6.10228,51.1716],[6.10237,51.1716],[6.10244,51.17155],[6.10249,51.17159],[6.10243,51.17166],[6.10249,51.17169],[6.10251,51.17163],[6.10257,51.17164],[6.10259,51.17159],[6.10264,51.1716],[6.10268,51.17167],[6.10264,51.1717],[6.10269,51.17173],[6.10272,51.17182],[6.10277,51.1718],[6.1028,51.17172],[6.10284,51.17169],[6.10293,51.17177],[6.103,51.17178],[6.10303,51.17184],[6.10316,51.1718],[6.1032,51.17177],[6.10324,51.17173],[6.10329,51.17173],[6.10335,51.17174],[6.10337,51.17176],[6.10334,51.1718],[6.10327,51.17185],[6.10336,51.17185],[6.10345,51.17179],[6.10356,51.17182],[6.10362,51.1718],[6.10363,51.17183],[6.10355,51.17187],[6.1036,51.17189],[6.10377,51.17185],[6.10382,51.17194],[6.10388,51.17198],[6.10421,51.17206],[6.1043,51.17204],[6.10439,51.17198],[6.10449,51.17195],[6.10471,51.17199],[6.10477,51.17194],[6.10504,51.17197],[6.10518,51.17199],[6.1053,51.17206],[6.10544,51.17205],[6.10553,51.17209],[6.10562,51.1721],[6.1056,51.17216],[6.10576,51.17221],[6.10586,51.17218],[6.1059,51.17209],[6.106,51.17214],[6.10605,51.17214],[6.1061,51.17219],[6.10616,51.17228],[6.10621,51.17227],[6.10623,51.17229],[6.10642,51.17234],[6.10645,51.17228],[6.10659,51.1723],[6.10668,51.17237],[6.10682,51.17241],[6.10678,51.17249],[6.10681,51.17251],[6.10689,51.17248],[6.10704,51.1725],[6.10708,51.17246],[6.10715,51.17248],[6.1071,51.17252],[6.10715,51.17254],[6.10718,51.17251],[6.10723,51.17251],[6.10728,51.17253],[6.10743,51.17257],[6.10744,51.17253],[6.10747,51.1725],[6.10748,51.17248],[6.10752,51.17247],[6.10754,51.17248],[6.10753,51.17252],[6.10749,51.17256],[6.10744,51.17259],[6.10749,51.17271],[6.10757,51.17276],[6.10756,51.17277],[6.10743,51.17279],[6.10753,51.1729],[6.10769,51.17293],[6.10776,51.17292],[6.10784,51.17294],[6.1079,51.1729],[6.10796,51.17292],[6.10786,51.173],[6.10788,51.17305],[6.10799,51.17302],[6.10803,51.1731],[6.10792,51.17314],[6.10792,51.17319],[6.10799,51.17315],[6.10813,51.17319],[6.1082,51.17316],[6.10827,51.17319],[6.1083,51.17316],[6.10833,51.17318],[6.1084,51.17318],[6.10842,51.17324],[6.10835,51.17327],[6.10842,51.17331],[6.10856,51.17325],[6.1086,51.17321],[6.10865,51.17322],[6.10874,51.17321],[6.10872,51.17318],[6.10879,51.17313],[6.10892,51.17317],[6.10894,51.17322],[6.10892,51.17326],[6.10897,51.17329],[6.10906,51.17325],[6.10921,51.17338],[6.10922,51.17345],[6.10942,51.17349],[6.10949,51.17348],[6.10958,51.17342],[6.10965,51.17343],[6.10968,51.17351],[6.10977,51.17349],[6.10991,51.1734],[6.10988,51.17334],[6.10998,51.17328],[6.11017,51.17348],[6.11022,51.17357],[6.11035,51.17359],[6.11036,51.17367],[6.11067,51.17365],[6.11071,51.17374],[6.1109,51.17371],[6.11104,51.17381],[6.11123,51.17385],[6.11137,51.17394],[6.1113,51.17397],[6.11104,51.17399],[6.11117,51.17405],[6.11108,51.17411],[6.11117,51.17417],[6.1112,51.17413],[6.11126,51.17416],[6.11117,51.17426],[6.11165,51.17442],[6.1114,51.17463],[6.11147,51.17469],[6.11158,51.17464],[6.11168,51.17474],[6.11182,51.1747],[6.11193,51.17475],[6.11205,51.1747],[6.11226,51.1748],[6.11237,51.17476],[6.11247,51.1748],[6.11256,51.17487],[6.11262,51.17488],[6.11265,51.17483],[6.11266,51.17477],[6.11277,51.17484],[6.11269,51.17488],[6.11268,51.17497],[6.11271,51.17497],[6.11276,51.17501],[6.1128,51.17498],[6.11286,51.175],[6.11277,51.17506],[6.11276,51.1751],[6.11282,51.17512],[6.1128,51.17519],[6.11292,51.1753],[6.113,51.17526],[6.11315,51.17528],[6.11322,51.17536],[6.11329,51.17537],[6.11332,51.17542],[6.11341,51.17544],[6.1135,51.17553],[6.11354,51.17562],[6.11359,51.17571],[6.11373,51.17574],[6.11395,51.17588],[6.11409,51.17604],[6.11425,51.17613],[6.11428,51.17618],[6.11425,51.17624],[6.11429,51.17628],[6.11441,51.17632],[6.11445,51.17636],[6.11448,51.1764],[6.11455,51.17641],[6.11463,51.17652],[6.11464,51.1766],[6.11474,51.17664],[6.11481,51.17675],[6.11486,51.1769],[6.11497,51.17701],[6.11504,51.17716],[6.11522,51.17733],[6.11529,51.1775],[6.11546,51.17764],[6.1154,51.17767],[6.11538,51.17771],[6.11549,51.17781],[6.1155,51.17787],[6.11556,51.17792],[6.1157,51.17801],[6.11588,51.17811],[6.11594,51.17813],[6.11618,51.17823],[6.11638,51.17832],[6.11669,51.17852],[6.11682,51.17856],[6.1169,51.17861],[6.11707,51.1787],[6.11732,51.17881],[6.1174,51.17887],[6.11736,51.17901],[6.11738,51.17911],[6.11756,51.17915],[6.11774,51.17919],[6.11798,51.17925],[6.11816,51.17932],[6.11833,51.17944],[6.11881,51.17964],[6.11912,51.17979],[6.11934,51.1799],[6.11979,51.1801],[6.12026,51.18032],[6.12059,51.18046],[6.12079,51.18055],[6.12105,51.18062],[6.12147,51.18083],[6.1217,51.18094],[6.122,51.18102],[6.1222,51.18109],[6.12238,51.18122],[6.1226,51.18136],[6.12366,51.18162],[6.1239,51.18167],[6.12431,51.18177],[6.12469,51.18185],[6.12507,51.18195],[6.12514,51.18197],[6.12581,51.18218],[6.12636,51.18232],[6.12685,51.18246],[6.1275,51.18271],[6.12805,51.18292],[6.12859,51.18321],[6.12882,51.18333],[6.12962,51.18374],[6.13069,51.18404],[6.13095,51.18411],[6.13168,51.18432],[6.13296,51.18468],[6.13369,51.18489],[6.13557,51.18542],[6.13596,51.18554],[6.13648,51.18571],[6.13811,51.18624],[6.14039,51.18698],[6.1411,51.1872],[6.14403,51.18806],[6.1452,51.18841],[6.14903,51.18955],[6.1499,51.18981],[6.15243,51.19051],[6.15362,51.19085],[6.15731,51.19183],[6.1611,51.19284],[6.16517,51.19441],[6.16523,51.19438],[6.16698,51.19347],[6.16748,51.19322],[6.16867,51.1926],[6.1694,51.19222],[6.16986,51.19198],[6.17053,51.19163],[6.1714,51.19119],[6.17183,51.19096],[6.17328,51.19021],[6.17354,51.19007],[6.17356,51.19007],[6.17426,51.18971],[6.17584,51.18888],[6.17704,51.18826],[6.17762,51.18796],[6.17768,51.18793],[6.17778,51.18788],[6.17892,51.18729],[6.17893,51.18728],[6.17899,51.18725],[6.17936,51.18706],[6.18005,51.18671],[6.18068,51.18638],[6.18072,51.18636],[6.18067,51.18634],[6.17898,51.18585],[6.17725,51.18534],[6.17685,51.18522],[6.17467,51.18458],[6.17799,51.18282],[6.17806,51.18278],[6.17809,51.18276],[6.18132,51.18106],[6.18136,51.18104],[6.18199,51.1807],[6.18257,51.18039],[6.18353,51.17987],[6.18374,51.17975],[6.18463,51.17927],[6.18554,51.17878],[6.18743,51.17777],[6.18835,51.17729],[6.18891,51.17698],[6.18924,51.1768],[6.18928,51.17678],[6.19094,51.1759],[6.19162,51.17554],[6.19254,51.17504],[6.19269,51.17496],[6.19281,51.1749],[6.19331,51.17463],[6.19335,51.17461],[6.19412,51.1742],[6.19482,51.17382],[6.19673,51.1728],[6.19761,51.17233],[6.19866,51.17177],[6.19955,51.1713],[6.20036,51.17086],[6.20102,51.1705],[6.20231,51.16982],[6.20238,51.16978],[6.20241,51.16977],[6.20259,51.16967],[6.20451,51.16866],[6.20454,51.16864],[6.20729,51.16718],[6.20747,51.16709],[6.2076,51.16702],[6.2076,51.16897],[6.20761,51.16919],[6.21127,51.16682],[6.21132,51.16684],[6.21525,51.1683],[6.21533,51.16833],[6.21718,51.16901],[6.21749,51.16913],[6.21755,51.16915],[6.21827,51.16942],[6.2184,51.16954],[6.21844,51.16958],[6.22214,51.17309],[6.22257,51.1735],[6.22379,51.1734],[6.22391,51.17336],[6.22465,51.17285],[6.22468,51.17283],[6.22471,51.17285],[6.22816,51.1749],[6.22967,51.1758],[6.22969,51.17581],[6.22966,51.17584],[6.22846,51.17677],[6.22843,51.17679],[6.23253,51.17932],[6.23258,51.17936],[6.23214,51.17956],[6.23456,51.18088],[6.23388,51.18117],[6.23391,51.1812],[6.23554,51.18272],[6.23626,51.18339],[6.23632,51.18345],[6.23715,51.18419],[6.23773,51.18471],[6.23811,51.18504],[6.23817,51.1851],[6.23885,51.18496],[6.23893,51.18498],[6.24052,51.18642],[6.24058,51.18648],[6.24062,51.18646],[6.24099,51.18635],[6.24149,51.18614],[6.2416,51.18608],[6.24164,51.18606],[6.24234,51.18689],[6.24348,51.18631],[6.2435,51.18633],[6.24426,51.18724],[6.24467,51.18703],[6.24513,51.18762],[6.24524,51.18776],[6.24531,51.18776],[6.24571,51.18774],[6.24724,51.18768],[6.24761,51.18765],[6.24859,51.18735],[6.2486,51.18737],[6.24862,51.18739],[6.24863,51.18741],[6.24865,51.18744],[6.24889,51.18774],[6.24903,51.18791],[6.24936,51.18832],[6.2494,51.18836],[6.24951,51.1885],[6.25,51.18911],[6.25006,51.18919],[6.25083,51.19012],[6.2509,51.1902],[6.25099,51.19015],[6.25103,51.19014],[6.25128,51.19001],[6.25299,51.18917],[6.25367,51.18883],[6.25388,51.18874],[6.25403,51.18867],[6.25412,51.18863],[6.25423,51.1886],[6.25435,51.18856],[6.25444,51.18852],[6.25647,51.18797],[6.25664,51.18792],[6.25675,51.18788],[6.25683,51.18785],[6.25717,51.1877],[6.25727,51.18766],[6.25733,51.18763],[6.25767,51.18749],[6.25784,51.18741],[6.25808,51.18731],[6.25839,51.18718],[6.25843,51.18716],[6.25847,51.18715],[6.25852,51.18715],[6.25857,51.18714],[6.25859,51.18714],[6.25861,51.18714],[6.25929,51.18724],[6.25965,51.1873],[6.25974,51.18731],[6.2598,51.18732],[6.25986,51.18732],[6.25992,51.18732],[6.25999,51.18731],[6.26006,51.1873],[6.26013,51.18729],[6.2602,51.18726],[6.26027,51.18724],[6.26095,51.18699],[6.26101,51.18697],[6.26112,51.18693],[6.26146,51.1868],[6.26151,51.18679],[6.26165,51.18673],[6.26223,51.18651],[6.26284,51.18628],[6.26287,51.18627],[6.26292,51.18625],[6.26296,51.18622],[6.263,51.1862],[6.26303,51.18617],[6.26304,51.18616],[6.26307,51.1861],[6.26308,51.18608],[6.26308,51.18605],[6.26322,51.18529],[6.26323,51.18527],[6.26323,51.18525],[6.26327,51.18516],[6.26329,51.18514],[6.26332,51.1851],[6.26335,51.18507],[6.26338,51.18504],[6.26342,51.18501],[6.26354,51.18493],[6.26359,51.18489],[6.26365,51.18486],[6.2637,51.18482],[6.26377,51.18476],[6.26394,51.18458],[6.26396,51.18456],[6.26396,51.18454],[6.26396,51.18452],[6.26396,51.18451],[6.26395,51.1845],[6.26393,51.18449],[6.26391,51.18448],[6.26388,51.18447],[6.26382,51.18445],[6.2638,51.18444],[6.26377,51.18443],[6.26375,51.18442],[6.26374,51.1844],[6.26373,51.18439],[6.26373,51.18437],[6.26373,51.18436],[6.26374,51.18434],[6.26375,51.18433],[6.26376,51.18431],[6.26378,51.18429],[6.26409,51.1841],[6.26412,51.18408],[6.26423,51.18405],[6.26429,51.18405],[6.26442,51.18406],[6.26457,51.18409],[6.26499,51.18419],[6.26544,51.18432],[6.26572,51.18431],[6.26601,51.18421],[6.26617,51.18412],[6.26619,51.18406],[6.2662,51.184],[6.2662,51.184],[6.26619,51.18399],[6.26618,51.18398],[6.26617,51.18397],[6.26615,51.18396],[6.26611,51.18395],[6.26598,51.1839],[6.26553,51.18364],[6.26521,51.18352],[6.26517,51.18351],[6.26512,51.18349],[6.2651,51.18348],[6.26509,51.18347],[6.26508,51.18346],[6.26507,51.18344],[6.26507,51.18343],[6.26508,51.18341],[6.26509,51.1834],[6.2651,51.18339],[6.26512,51.18337],[6.26515,51.18334],[6.26516,51.18333],[6.26517,51.18331],[6.26516,51.1833],[6.26515,51.18328],[6.26513,51.18327],[6.26511,51.18326],[6.26509,51.18326],[6.26506,51.18326],[6.26498,51.18326],[6.26495,51.18326],[6.26493,51.18326],[6.26484,51.18324],[6.2648,51.18323],[6.26478,51.18323],[6.26477,51.18322],[6.26476,51.18321],[6.26476,51.18319],[6.26475,51.18315],[6.26476,51.1829],[6.26476,51.18288],[6.26475,51.18287],[6.26472,51.18281],[6.26471,51.18279],[6.2647,51.18277],[6.26469,51.18275],[6.26469,51.18274],[6.2647,51.18272],[6.2647,51.18271],[6.26471,51.1827],[6.26473,51.18269],[6.26477,51.18266],[6.26483,51.18262],[6.26484,51.18261],[6.26487,51.18261],[6.26489,51.18261],[6.26493,51.18261],[6.26516,51.1826],[6.26528,51.18259],[6.26537,51.18259],[6.26544,51.1826],[6.2655,51.18261],[6.26555,51.18262],[6.26559,51.18263],[6.2656,51.18265],[6.26566,51.18287],[6.26617,51.183],[6.26626,51.18302],[6.26632,51.18303],[6.26638,51.18303],[6.26651,51.18302],[6.26656,51.18304],[6.26662,51.18307],[6.26666,51.1831],[6.2667,51.18312],[6.26677,51.18315],[6.26685,51.18319],[6.2669,51.18318],[6.26692,51.18318],[6.26693,51.18317],[6.26693,51.18316],[6.26694,51.18314],[6.26694,51.18312],[6.26694,51.18307],[6.26695,51.18305],[6.26695,51.18303],[6.26698,51.18299],[6.2671,51.18283],[6.26712,51.1828],[6.26712,51.18279],[6.26712,51.18277],[6.2671,51.18271],[6.26713,51.18265],[6.26717,51.18258],[6.26717,51.18256],[6.26716,51.18253],[6.26715,51.18251],[6.26712,51.18249],[6.2671,51.18248],[6.26708,51.18247],[6.26706,51.18247],[6.26704,51.18246],[6.26698,51.18245],[6.26692,51.18246],[6.26688,51.18246],[6.26682,51.18247],[6.26677,51.18248],[6.2667,51.18251],[6.26662,51.18253],[6.26656,51.18254],[6.26652,51.18254],[6.26649,51.18254],[6.26645,51.18254],[6.26642,51.18253],[6.26639,51.18252],[6.26633,51.18249],[6.26627,51.18247],[6.26621,51.18246],[6.26612,51.18245],[6.26601,51.18243],[6.26596,51.18243],[6.26592,51.18242],[6.2659,51.18241],[6.26588,51.1824],[6.26587,51.18239],[6.26587,51.18237],[6.26588,51.18236],[6.26589,51.18233],[6.26591,51.1823],[6.26596,51.18223],[6.26599,51.18219],[6.26601,51.18214],[6.26602,51.18209],[6.26603,51.18205],[6.26604,51.18202],[6.26606,51.182],[6.26607,51.18199],[6.26612,51.18196],[6.26643,51.18175],[6.26645,51.18173],[6.26647,51.18171],[6.26647,51.18169],[6.26647,51.18167],[6.26647,51.18165],[6.26646,51.18163],[6.26645,51.18161],[6.26643,51.18158],[6.2664,51.18156],[6.26637,51.18153],[6.26635,51.18151],[6.26632,51.18149],[6.26627,51.18147],[6.26615,51.18143],[6.26612,51.18141],[6.2661,51.1814],[6.26608,51.18138],[6.26607,51.18137],[6.26607,51.18136],[6.26608,51.18135],[6.26609,51.18132],[6.26613,51.18129],[6.26623,51.18122],[6.26626,51.18119],[6.26628,51.18115],[6.26631,51.1811],[6.26633,51.18105],[6.26634,51.181],[6.26635,51.18094],[6.26638,51.18077],[6.26639,51.18071],[6.2664,51.18069],[6.26641,51.18067],[6.26643,51.18064],[6.26645,51.18062],[6.26648,51.1806],[6.26651,51.18059],[6.26654,51.18057],[6.26692,51.18068],[6.26695,51.18069],[6.26698,51.18071],[6.267,51.18072],[6.26703,51.18075],[6.26706,51.18078],[6.26706,51.1808],[6.26707,51.18082],[6.26708,51.18088],[6.26708,51.1809],[6.2671,51.18091],[6.26711,51.18092],[6.26714,51.18092],[6.26717,51.18093],[6.2672,51.18093],[6.26723,51.18093],[6.26727,51.18092],[6.26731,51.18091],[6.26736,51.1809],[6.26746,51.18087],[6.26753,51.18084],[6.26755,51.18083],[6.26758,51.18081],[6.2676,51.1808],[6.26762,51.18078],[6.26762,51.18077],[6.26763,51.18075],[6.26763,51.18074],[6.26763,51.18073],[6.26762,51.18072],[6.26761,51.18071],[6.26759,51.1807],[6.26756,51.18069],[6.26729,51.18063],[6.26723,51.18062],[6.26718,51.18061],[6.2671,51.18061],[6.26706,51.18061],[6.26702,51.1806],[6.26701,51.1806],[6.267,51.18059],[6.267,51.18058],[6.267,51.18058],[6.26701,51.18056],[6.26702,51.18055],[6.26704,51.18054],[6.2671,51.18051],[6.26713,51.18049],[6.26716,51.18047],[6.26719,51.18045],[6.26721,51.18043],[6.26723,51.18039],[6.26724,51.18035],[6.26725,51.1803],[6.26726,51.18027],[6.26736,51.18011],[6.26737,51.18009],[6.26738,51.18008],[6.26741,51.18007],[6.26742,51.18007],[6.26743,51.18007],[6.26752,51.18009],[6.26754,51.1801],[6.26756,51.1801],[6.26758,51.18012],[6.26759,51.18014],[6.26761,51.18017],[6.26763,51.18022],[6.26765,51.1803],[6.26765,51.18031],[6.26766,51.18031],[6.26767,51.18032],[6.2677,51.18032],[6.26775,51.18032],[6.26788,51.18032],[6.26791,51.18032],[6.26794,51.18031],[6.26839,51.18022],[6.26841,51.18022],[6.26843,51.18023],[6.26845,51.18024],[6.26846,51.18025],[6.26852,51.18035],[6.26837,51.1807],[6.26883,51.18087],[6.26887,51.18089],[6.2689,51.18089],[6.26893,51.1809],[6.26895,51.18089],[6.26896,51.18089],[6.26898,51.18088],[6.26899,51.18087],[6.26901,51.18086],[6.26902,51.18084],[6.26903,51.18082],[6.26904,51.1808],[6.26904,51.18078],[6.26904,51.18076],[6.26904,51.18074],[6.26903,51.18072],[6.26902,51.1807],[6.26887,51.18044],[6.26885,51.18041],[6.26884,51.18037],[6.26884,51.18034],[6.26885,51.1803],[6.26886,51.18029],[6.26887,51.18027],[6.26889,51.18026],[6.2689,51.18026],[6.26892,51.18025],[6.26893,51.18025],[6.26896,51.18025],[6.26898,51.18025],[6.26899,51.18025],[6.26901,51.18026],[6.26903,51.18027],[6.26904,51.18028],[6.26907,51.1803],[6.26909,51.18034],[6.26913,51.1804],[6.26915,51.18043],[6.26917,51.18045],[6.26919,51.18046],[6.26924,51.18049],[6.26934,51.18054],[6.26937,51.18056],[6.2694,51.18057],[6.26943,51.18059],[6.26945,51.18062],[6.26947,51.18064],[6.26948,51.18066],[6.26949,51.18068],[6.26949,51.18071],[6.2695,51.18073],[6.2695,51.18077],[6.26949,51.1808],[6.26949,51.18083],[6.26948,51.18086],[6.26944,51.18098],[6.26944,51.18098],[6.26944,51.18099],[6.26946,51.181],[6.26947,51.181],[6.2695,51.18101],[6.26964,51.18103],[6.26989,51.18107],[6.26992,51.18108],[6.26995,51.18108],[6.27001,51.18107],[6.27007,51.18107],[6.27034,51.18098],[6.27065,51.18086],[6.27067,51.18084],[6.27069,51.18083],[6.27069,51.18082],[6.2707,51.1808],[6.2707,51.18077],[6.27069,51.18075],[6.27067,51.18074],[6.27065,51.18073],[6.27049,51.18065],[6.27048,51.18064],[6.27047,51.18064],[6.27046,51.18063],[6.27046,51.18062],[6.27048,51.18047],[6.27044,51.1804],[6.27043,51.18019],[6.27051,51.18],[6.27051,51.18],[6.27053,51.17999],[6.27055,51.18],[6.27058,51.18],[6.27062,51.18001],[6.27065,51.18002],[6.27067,51.18003],[6.2707,51.18005],[6.27076,51.18009],[6.27078,51.1801],[6.2708,51.1801],[6.27083,51.18011],[6.2709,51.18012],[6.27094,51.18012],[6.27096,51.18013],[6.27099,51.18015],[6.27102,51.18017],[6.27106,51.1802],[6.27111,51.18023],[6.27117,51.18026],[6.2712,51.18028],[6.27123,51.1803],[6.27124,51.18031],[6.27125,51.18033],[6.27127,51.18049],[6.27136,51.18057],[6.27137,51.18057],[6.27139,51.18058],[6.2714,51.18058],[6.27142,51.18059],[6.27147,51.18058],[6.27152,51.18057],[6.27157,51.18056],[6.27161,51.18055],[6.27163,51.18053],[6.27165,51.18051],[6.27166,51.1805],[6.27166,51.18048],[6.27166,51.18046],[6.27166,51.18039],[6.27166,51.18037],[6.27167,51.18035],[6.27168,51.18034],[6.2717,51.18032],[6.27172,51.18031],[6.27175,51.1803],[6.27199,51.18021],[6.27202,51.18013],[6.27204,51.17998],[6.27204,51.17996],[6.27205,51.17994],[6.27207,51.17991],[6.2721,51.17989],[6.27213,51.17987],[6.27217,51.17986],[6.2722,51.17984],[6.27225,51.17983],[6.27244,51.1798],[6.27283,51.17961],[6.27326,51.17956],[6.27332,51.17955],[6.27337,51.17953],[6.27342,51.17951],[6.27347,51.17948],[6.27349,51.17946],[6.27351,51.17944],[6.27352,51.17942],[6.27352,51.1794],[6.27353,51.1793],[6.27363,51.1792],[6.27376,51.17909],[6.27381,51.17904],[6.27386,51.17901],[6.27391,51.17898],[6.27396,51.17895],[6.27402,51.17892],[6.27408,51.1789],[6.27414,51.17888],[6.2742,51.17886],[6.27426,51.17884],[6.27432,51.17883],[6.27437,51.17882],[6.27442,51.17881],[6.27448,51.1788],[6.2746,51.1788],[6.27473,51.1788],[6.2748,51.1788],[6.27484,51.1788],[6.27489,51.17881],[6.27492,51.17882],[6.27495,51.17884],[6.27498,51.17886],[6.275,51.17889],[6.27503,51.17892],[6.27504,51.17895],[6.27505,51.17898],[6.27506,51.17901],[6.27506,51.17904],[6.27506,51.17906],[6.27505,51.17908],[6.27504,51.1791],[6.27503,51.17911],[6.275,51.17913],[6.27496,51.17915],[6.27492,51.17916],[6.27477,51.17919],[6.27473,51.17921],[6.27469,51.17922],[6.27466,51.17924],[6.27463,51.17927],[6.27462,51.17929],[6.27461,51.17931],[6.27461,51.17933],[6.27462,51.17935],[6.27464,51.17937],[6.27466,51.17939],[6.27469,51.17941],[6.27473,51.17942],[6.27477,51.17944],[6.27485,51.17946],[6.27492,51.17948],[6.27496,51.17948],[6.27498,51.17948],[6.275,51.17948],[6.27502,51.17948],[6.27503,51.17947],[6.27534,51.17933],[6.27537,51.17932],[6.27539,51.17932],[6.27542,51.17932],[6.27546,51.17932],[6.27549,51.17932],[6.27553,51.17932],[6.27566,51.17936],[6.27572,51.17937],[6.27577,51.17937],[6.27583,51.17937],[6.27605,51.17935],[6.27612,51.17935],[6.27618,51.17935],[6.27623,51.17936],[6.27628,51.17937],[6.27632,51.17939],[6.27636,51.17941],[6.27638,51.17943],[6.2764,51.17946],[6.27641,51.17948],[6.2764,51.17951],[6.27639,51.17954],[6.27637,51.17957],[6.27635,51.17959],[6.27629,51.17964],[6.27627,51.17966],[6.27625,51.17968],[6.27625,51.1797],[6.27624,51.17971],[6.27625,51.17973],[6.27625,51.17974],[6.27626,51.17975],[6.27629,51.17976],[6.27632,51.17977],[6.27634,51.17977],[6.27635,51.17977],[6.27673,51.17974],[6.27675,51.17974],[6.27678,51.17973],[6.2768,51.17972],[6.27682,51.1797],[6.27684,51.17968],[6.27685,51.17966],[6.27686,51.17963],[6.27687,51.1796],[6.27687,51.17957],[6.27686,51.17953],[6.27684,51.17949],[6.27681,51.17944],[6.27667,51.17921],[6.27666,51.1792],[6.27664,51.17919],[6.27655,51.17915],[6.27652,51.17913],[6.27649,51.17911],[6.27647,51.17909],[6.27647,51.17908],[6.27647,51.17907],[6.27648,51.17907],[6.27649,51.17906],[6.27651,51.17905],[6.27656,51.17905],[6.27665,51.17904],[6.2767,51.17904],[6.27674,51.17903],[6.27677,51.17902],[6.27678,51.17901],[6.27692,51.17881],[6.27694,51.1788],[6.27697,51.17878],[6.277,51.17877],[6.27704,51.17877],[6.27707,51.17877],[6.2771,51.17877],[6.27712,51.17877],[6.27715,51.17878],[6.27717,51.17879],[6.27724,51.17883],[6.27726,51.17884],[6.27729,51.17885],[6.27743,51.17887],[6.278,51.17881],[6.27814,51.1788],[6.2782,51.1788],[6.27825,51.1788],[6.27832,51.1788],[6.27838,51.17881],[6.27843,51.17882],[6.27848,51.17884],[6.2785,51.17885],[6.27852,51.17887],[6.27858,51.17892],[6.2786,51.17894],[6.27862,51.17896],[6.27865,51.17897],[6.27867,51.17898],[6.27871,51.17899],[6.27872,51.17899],[6.27874,51.17899],[6.27875,51.17899],[6.27877,51.17898],[6.27879,51.17898],[6.2788,51.17896],[6.27881,51.17895],[6.27882,51.17893],[6.27883,51.17892],[6.27883,51.1789],[6.27881,51.17853],[6.27881,51.1785],[6.27879,51.17847],[6.27876,51.17844],[6.27871,51.17839],[6.27868,51.17835],[6.27866,51.17831],[6.27865,51.17829],[6.27865,51.17827],[6.27865,51.17826],[6.27866,51.17825],[6.27867,51.17824],[6.2787,51.17822],[6.27874,51.1782],[6.2788,51.17818],[6.27925,51.17804],[6.27942,51.178],[6.2795,51.17792],[6.27953,51.17787],[6.27958,51.17786],[6.27972,51.17782],[6.27975,51.17781],[6.2798,51.17778],[6.27983,51.17777],[6.27985,51.17776],[6.28008,51.1776],[6.28019,51.17748],[6.2802,51.17747],[6.28021,51.17746],[6.28022,51.17744],[6.28022,51.17742],[6.28026,51.17719],[6.28057,51.17703],[6.2806,51.17702],[6.28062,51.177],[6.28064,51.17698],[6.28065,51.17696],[6.28066,51.17694],[6.28067,51.17691],[6.28066,51.17689],[6.28064,51.17686],[6.28052,51.17668],[6.28038,51.17652],[6.28034,51.17647],[6.28032,51.17642],[6.2803,51.17638],[6.28029,51.17634],[6.28029,51.17631],[6.28029,51.17628],[6.2803,51.17625],[6.28032,51.17623],[6.28033,51.17621],[6.28035,51.17619],[6.28038,51.17618],[6.2804,51.17616],[6.28087,51.17598],[6.28091,51.17598],[6.28093,51.17598],[6.28094,51.17598],[6.28098,51.17597],[6.28106,51.17594],[6.28112,51.17591],[6.28115,51.17589],[6.28119,51.17586],[6.28122,51.17583],[6.28126,51.17579],[6.28128,51.17575],[6.2813,51.17572],[6.28131,51.17567],[6.28132,51.17565],[6.28133,51.17563],[6.28134,51.17562],[6.28136,51.1756],[6.28139,51.17558],[6.28154,51.1755],[6.28159,51.17548],[6.28164,51.17546],[6.28168,51.17545],[6.28171,51.17544],[6.28175,51.17544],[6.28178,51.17543],[6.28182,51.17543],[6.28379,51.17547],[6.28518,51.1755],[6.28537,51.1755],[6.28596,51.17551],[6.28624,51.17551],[6.28751,51.17549],[6.28925,51.17549],[6.28944,51.17549],[6.28957,51.17545],[6.28968,51.17542],[6.2899,51.17543],[6.29005,51.17544],[6.2905,51.17546],[6.29069,51.17547],[6.2908,51.17547],[6.29089,51.17547],[6.29097,51.17547],[6.29111,51.17545],[6.29117,51.17544],[6.29107,51.1757],[6.29143,51.17581],[6.29173,51.17589],[6.29171,51.17595],[6.29184,51.17599],[6.29192,51.17601],[6.29202,51.17603],[6.29211,51.17605],[6.29222,51.17606],[6.29235,51.17608],[6.29242,51.17609],[6.29252,51.17611],[6.2928,51.17616],[6.29287,51.17618],[6.29293,51.17619],[6.293,51.17621],[6.29319,51.17628],[6.29334,51.17632],[6.29337,51.17632],[6.29354,51.17637],[6.29393,51.17643],[6.29411,51.17652],[6.29431,51.17657],[6.29443,51.17659],[6.29498,51.17693],[6.29504,51.17695],[6.29515,51.17702],[6.29601,51.17757],[6.29609,51.17762],[6.2962,51.17769],[6.29629,51.17774],[6.29691,51.17832],[6.29696,51.17836],[6.29701,51.17839],[6.29711,51.17846],[6.2972,51.1785],[6.29728,51.17854],[6.29738,51.17858],[6.29748,51.17861],[6.29758,51.17863],[6.29766,51.17865],[6.2979,51.17869],[6.29798,51.17871],[6.29805,51.17873],[6.29811,51.17875],[6.29818,51.17878],[6.29825,51.17881],[6.29836,51.17886],[6.30056,51.17994],[6.30063,51.17997],[6.3007,51.18],[6.30077,51.18003],[6.30084,51.18005],[6.30094,51.18008],[6.30107,51.18012],[6.30129,51.18017],[6.30141,51.18021],[6.3015,51.18023],[6.30158,51.18024],[6.30178,51.18026],[6.30181,51.18027],[6.30195,51.18029],[6.30218,51.18033],[6.3026,51.1804],[6.30293,51.18045],[6.30303,51.18047],[6.30311,51.18048],[6.30321,51.18048],[6.3034,51.1805],[6.3043,51.18056],[6.30445,51.18057],[6.30484,51.18071],[6.30559,51.18098],[6.30688,51.1808],[6.30719,51.18062],[6.30775,51.18027],[6.30804,51.18001],[6.30806,51.17999],[6.30812,51.17994],[6.30822,51.17986],[6.30824,51.17979],[6.30885,51.1793],[6.30955,51.17919],[6.3101,51.17922],[6.31014,51.17923],[6.31019,51.17924],[6.31069,51.17936],[6.31123,51.17939],[6.31146,51.17936],[6.3117,51.17938],[6.31182,51.17938],[6.3128,51.17939],[6.31332,51.17933],[6.31372,51.17925],[6.31381,51.17924],[6.31399,51.17917],[6.31472,51.17884],[6.31473,51.17885],[6.31484,51.17893],[6.31576,51.17957],[6.3159,51.17966],[6.31596,51.17971],[6.31628,51.17996],[6.31693,51.18045],[6.317,51.1805],[6.31753,51.18086],[6.31794,51.1812],[6.31841,51.18159],[6.3184,51.18172],[6.31795,51.18191],[6.31753,51.1821],[6.31716,51.18222],[6.31654,51.18253],[6.31608,51.18278],[6.31586,51.18299],[6.31552,51.18321],[6.31536,51.18301],[6.31402,51.1843],[6.31374,51.1848],[6.31376,51.18485],[6.31403,51.18563],[6.31415,51.18589],[6.31421,51.18597],[6.31428,51.18604],[6.31448,51.18657],[6.31443,51.18667],[6.31443,51.18669],[6.31443,51.18674],[6.31442,51.1868],[6.3144,51.1869],[6.31426,51.18719],[6.31405,51.18764],[6.31379,51.18855],[6.31314,51.19005],[6.31286,51.19049],[6.31291,51.19049],[6.31307,51.19053],[6.313,51.19065],[6.31301,51.1908],[6.3131,51.19087],[6.31336,51.19098],[6.31382,51.19124],[6.31399,51.19135],[6.31407,51.19142],[6.31416,51.19151],[6.31419,51.19154],[6.31422,51.19158],[6.31425,51.19163],[6.31427,51.19169],[6.31429,51.19175],[6.3143,51.19183],[6.31437,51.19228],[6.31466,51.19316],[6.31474,51.19336],[6.31479,51.19347],[6.31492,51.19371],[6.31506,51.19403],[6.31511,51.19443],[6.31511,51.19456],[6.31482,51.19501],[6.31479,51.19505],[6.315,51.1955],[6.31502,51.19554],[6.31503,51.19555],[6.31513,51.19576],[6.31517,51.19585],[6.31517,51.19586],[6.3152,51.19592],[6.31524,51.19608],[6.31585,51.19726],[6.31609,51.19756],[6.31613,51.19763],[6.31638,51.19778],[6.31694,51.19809],[6.31689,51.1981],[6.31706,51.19816],[6.31751,51.19844],[6.31798,51.19884],[6.3188,51.19944],[6.31903,51.19958],[6.31913,51.19963],[6.31953,51.19983],[6.31965,51.19987],[6.31991,51.19994],[6.32001,51.2],[6.32003,51.20002],[6.31966,51.20044],[6.31971,51.2005],[6.31988,51.20068],[6.3202,51.20105],[6.32053,51.20129],[6.32071,51.20138],[6.3209,51.20148],[6.32389,51.20301],[6.32341,51.20334],[6.32345,51.20336],[6.32379,51.20351],[6.32439,51.20377],[6.32545,51.20423],[6.32664,51.20474],[6.32674,51.20479],[6.32685,51.20484],[6.32915,51.20584],[6.32928,51.20588],[6.33012,51.20603],[6.33002,51.20638],[6.32996,51.20661],[6.32984,51.20706],[6.32976,51.20735],[6.33022,51.20745],[6.33051,51.2075],[6.33079,51.20753],[6.33097,51.20753],[6.33105,51.20753],[6.33103,51.20763],[6.33081,51.20831],[6.33079,51.20838],[6.33073,51.20853],[6.33073,51.20855],[6.33073,51.20856],[6.3307,51.20868],[6.3307,51.20872],[6.33062,51.20932],[6.33055,51.20982],[6.33035,51.21077],[6.33034,51.21085],[6.33032,51.21096],[6.33031,51.21101],[6.3303,51.21106],[6.33028,51.21121],[6.33027,51.21143],[6.33028,51.21151],[6.33028,51.21159],[6.33029,51.21167],[6.3303,51.21175],[6.33032,51.21184],[6.33034,51.21192],[6.33036,51.212],[6.33045,51.21226],[6.33054,51.21257],[6.33056,51.21271],[6.3306,51.21287],[6.33051,51.21441],[6.33038,51.21655],[6.33038,51.2166],[6.33029,51.21844],[6.33011,51.22177],[6.33047,51.22461],[6.33051,51.22461],[6.33279,51.22465],[6.33383,51.22466],[6.33626,51.2247],[6.33628,51.22394],[6.33628,51.22389],[6.33735,51.22396],[6.33809,51.2241],[6.3381,51.22365],[6.33814,51.22365],[6.33971,51.22364],[6.3397,51.22439],[6.33969,51.22479],[6.34293,51.22492],[6.34296,51.22492],[6.3465,51.22528],[6.3465,51.22531],[6.34649,51.22535],[6.34643,51.22638],[6.34657,51.22642],[6.34759,51.22671],[6.34757,51.22674],[6.34841,51.22699],[6.348,51.22776],[6.34799,51.22778],[6.34907,51.22771],[6.34916,51.22772],[6.34973,51.22778],[6.35305,51.22816],[6.35515,51.22839],[6.35538,51.22841],[6.358,51.22869],[6.35912,51.22882],[6.36029,51.22896],[6.36032,51.22896],[6.36102,51.22909],[6.36111,51.22911],[6.3613,51.22914],[6.36134,51.22904],[6.36177,51.22791],[6.36204,51.22726],[6.36206,51.22719],[6.36208,51.22711],[6.3621,51.22706],[6.36226,51.2264],[6.36295,51.22493],[6.36343,51.22406],[6.36391,51.22331],[6.36441,51.22269],[6.36506,51.22196],[6.36528,51.22184],[6.36537,51.22179],[6.36633,51.22128],[6.36667,51.22105],[6.36674,51.221],[6.36701,51.22077],[6.36703,51.22076],[6.36725,51.22056],[6.36737,51.22046],[6.36766,51.22021],[6.3681,51.2199],[6.3685,51.21961],[6.36883,51.21939],[6.36996,51.21881],[6.37085,51.21832],[6.37151,51.218],[6.37203,51.21774],[6.37354,51.21771],[6.37378,51.21771],[6.3739,51.21771],[6.37403,51.21771],[6.37431,51.21771],[6.37435,51.21771],[6.37563,51.2177],[6.37759,51.21773],[6.3792,51.21777],[6.38137,51.21784],[6.3815,51.21784],[6.38314,51.2179],[6.38325,51.2179],[6.38395,51.21793],[6.38481,51.21794],[6.38669,51.21799],[6.38787,51.21802],[6.38951,51.21805],[6.3896,51.21805],[6.39039,51.21808],[6.39076,51.21809],[6.39162,51.21812],[6.39167,51.21812],[6.39251,51.21814],[6.39341,51.21817],[6.39385,51.21818],[6.39481,51.2182],[6.39533,51.21821],[6.39701,51.21824],[6.40013,51.21832],[6.40033,51.21833],[6.40064,51.21834],[6.40065,51.21834],[6.40072,51.21834],[6.40081,51.21834],[6.40099,51.21835],[6.40117,51.21836],[6.40131,51.21836],[6.40159,51.21838],[6.40232,51.21841],[6.40254,51.21842],[6.40418,51.21847],[6.40562,51.21851],[6.4074,51.21857],[6.40771,51.21858],[6.40888,51.21862],[6.40996,51.21865],[6.41021,51.21866],[6.41037,51.21867],[6.41051,51.21868],[6.41064,51.21869],[6.41075,51.21871],[6.41087,51.21873],[6.41125,51.21881],[6.4128,51.21911],[6.41473,51.2195],[6.41572,51.2197],[6.41603,51.21977],[6.41724,51.22001],[6.41734,51.22003],[6.41743,51.22008],[6.41756,51.22015],[6.41823,51.22042],[6.41887,51.22069],[6.42062,51.22137],[6.42177,51.22185],[6.42215,51.22199],[6.42228,51.22202],[6.42277,51.22227],[6.42283,51.22229],[6.42294,51.22235],[6.42299,51.22237],[6.424,51.22278],[6.42425,51.22288],[6.42445,51.22295],[6.42467,51.22304],[6.42494,51.22315],[6.42724,51.22407],[6.42876,51.22468],[6.42881,51.22472],[6.42882,51.22473],[6.43014,51.2258],[6.43017,51.22583],[6.43023,51.22587],[6.43028,51.22591],[6.43058,51.22615],[6.43053,51.22619],[6.43014,51.22648],[6.42968,51.22685],[6.42963,51.22689],[6.42965,51.22692],[6.42968,51.22696],[6.42969,51.22699],[6.4297,51.22703],[6.42974,51.22726],[6.42981,51.22764],[6.42984,51.22776],[6.42985,51.22778],[6.42988,51.22785],[6.43001,51.22807],[6.43026,51.22847],[6.43029,51.22852],[6.43031,51.22854],[6.43033,51.22856],[6.43038,51.22859],[6.43111,51.22907],[6.43196,51.22964],[6.43219,51.22979],[6.43264,51.2301],[6.43305,51.23036],[6.43381,51.23074],[6.4339,51.23077],[6.43399,51.2308],[6.43506,51.23115],[6.4364,51.23159],[6.43643,51.2316],[6.43662,51.23168],[6.43672,51.23172],[6.43679,51.23175],[6.43687,51.23178],[6.43693,51.2318],[6.437,51.23183],[6.43714,51.23189],[6.43782,51.2322],[6.43793,51.23225],[6.43791,51.23232],[6.43786,51.2327],[6.43781,51.23315],[6.43787,51.23337],[6.43799,51.23382],[6.43803,51.23396],[6.43809,51.2342],[6.43813,51.23436],[6.43827,51.23487],[6.43831,51.23488],[6.43862,51.235],[6.43977,51.23544],[6.4398,51.23546],[6.44017,51.23572],[6.44167,51.23532],[6.44191,51.23525],[6.4426,51.23506],[6.44323,51.23489],[6.44329,51.23487],[6.44337,51.23485],[6.44341,51.23484],[6.44348,51.23495],[6.44353,51.23503],[6.44378,51.23534],[6.44379,51.23536],[6.44382,51.2354],[6.44387,51.23546],[6.44391,51.2355],[6.44395,51.23554],[6.44399,51.23557],[6.44404,51.23561],[6.44413,51.23566],[6.44418,51.23569],[6.44422,51.23571],[6.44425,51.23575],[6.4443,51.23581],[6.44436,51.23587],[6.44454,51.23604],[6.44478,51.23627],[6.4449,51.2364],[6.44492,51.23643],[6.44495,51.2365],[6.44498,51.23652],[6.44502,51.23657],[6.44509,51.23664],[6.44515,51.23673],[6.44516,51.23676],[6.44519,51.23682],[6.44521,51.23685],[6.44524,51.23689],[6.44528,51.23693],[6.44546,51.2371],[6.44569,51.23737],[6.44601,51.23774],[6.44618,51.23793],[6.44623,51.23801],[6.44635,51.23808],[6.44639,51.23816],[6.44645,51.23821],[6.44657,51.23827],[6.44665,51.23838],[6.4468,51.23862],[6.44696,51.23885],[6.4471,51.23903],[6.44718,51.23911],[6.44722,51.23914],[6.44725,51.23918],[6.44728,51.23922],[6.44731,51.23926],[6.44735,51.23935],[6.44737,51.2394],[6.4474,51.23944],[6.44743,51.23948],[6.44749,51.23953],[6.44771,51.23972],[6.44797,51.23994],[6.44818,51.2401],[6.44841,51.24026],[6.44853,51.24035],[6.4487,51.24054],[6.44887,51.24074],[6.44902,51.241],[6.44916,51.24125],[6.44922,51.24142],[6.44934,51.24163],[6.4496,51.24211],[6.44965,51.24223],[6.44972,51.24234],[6.44997,51.24271],[6.45001,51.24275],[6.45008,51.24282],[6.4502,51.24291],[6.45027,51.24297],[6.45048,51.2432],[6.45049,51.24321],[6.45045,51.24335],[6.4504,51.24352],[6.45047,51.24363],[6.45051,51.24369],[6.45066,51.24388],[6.45093,51.24412],[6.45103,51.24417],[6.45125,51.24427],[6.45215,51.24471],[6.45224,51.24477],[6.45242,51.24492],[6.4526,51.24512],[6.45307,51.24562],[6.45316,51.24569],[6.4533,51.24579],[6.45351,51.24594],[6.45356,51.24597],[6.45376,51.24608],[6.4542,51.2463],[6.45445,51.24642],[6.45466,51.24649],[6.45529,51.24673],[6.45544,51.24679],[6.45555,51.24682],[6.4557,51.24689],[6.45624,51.24715],[6.45661,51.24733],[6.45702,51.24753],[6.45707,51.24756],[6.45709,51.24756],[6.4576,51.24778],[6.45768,51.24781],[6.45782,51.24788],[6.45864,51.24739],[6.45897,51.2472],[6.45957,51.24685],[6.46127,51.24585],[6.46168,51.2456],[6.46204,51.24538],[6.46205,51.24537],[6.46207,51.24536],[6.46326,51.24464],[6.46513,51.24348],[6.46722,51.24219],[6.46794,51.24175],[6.46821,51.24158],[6.46866,51.2413],[6.46901,51.24108],[6.47,51.24046],[6.47011,51.24039],[6.47028,51.24028],[6.47034,51.24025],[6.4704,51.24021],[6.47048,51.24016],[6.47056,51.24012],[6.47063,51.24007],[6.47069,51.24004],[6.471,51.23985],[6.4718,51.23936],[6.4719,51.2393],[6.47202,51.23923],[6.47215,51.23916],[6.47225,51.23911],[6.4725,51.239],[6.47495,51.23794],[6.47612,51.23744],[6.47624,51.23739],[6.47635,51.23734],[6.47645,51.23729],[6.47655,51.23724],[6.47665,51.23719],[6.47675,51.23713],[6.47684,51.23708],[6.47693,51.23702],[6.47703,51.23695],[6.47713,51.23689],[6.47722,51.23681],[6.47731,51.23674],[6.4774,51.23666],[6.47749,51.23658],[6.47759,51.23649],[6.47768,51.2364],[6.47785,51.23622],[6.47794,51.23613],[6.47797,51.2361],[6.478,51.23607],[6.47801,51.23606],[6.47803,51.23604],[6.47805,51.23601],[6.4781,51.23596],[6.47814,51.23596],[6.47841,51.23598],[6.47881,51.23601],[6.47897,51.23602],[6.47902,51.23603],[6.47906,51.23604],[6.47912,51.23605],[6.47917,51.23607],[6.47928,51.23611],[6.48062,51.23662],[6.4807,51.23665],[6.48087,51.23671],[6.48111,51.23679],[6.48142,51.23682],[6.48195,51.23702],[6.48205,51.23712],[6.4824,51.23726],[6.48249,51.23724],[6.48269,51.23732],[6.48516,51.23704],[6.48539,51.23702],[6.48621,51.23694],[6.48626,51.23694],[6.48633,51.23693],[6.48641,51.23692],[6.48649,51.23691],[6.4866,51.2369],[6.48696,51.23687],[6.48701,51.23686],[6.49411,51.23602],[6.50282,51.23501],[6.50305,51.23499],[6.50421,51.23485],[6.50445,51.23482],[6.5043,51.23441],[6.50424,51.23426],[6.50428,51.23425],[6.50443,51.23423],[6.50438,51.23411],[6.50427,51.23389],[6.50423,51.2338],[6.50419,51.2337],[6.50417,51.23364],[6.50416,51.23358],[6.50415,51.23352],[6.50414,51.23347],[6.50414,51.23343],[6.50414,51.23338],[6.50415,51.23333],[6.50416,51.23327],[6.50418,51.2332],[6.50421,51.23311],[6.50424,51.23302],[6.50428,51.23293],[6.50436,51.23277],[6.50447,51.23259],[6.50456,51.23244],[6.50461,51.23238],[6.50465,51.23233],[6.50469,51.23228],[6.50473,51.23225],[6.50476,51.23222],[6.50481,51.2322],[6.50485,51.23219],[6.50489,51.23217],[6.50492,51.23217],[6.50495,51.23217],[6.50578,51.23207],[6.50583,51.23206],[6.5062,51.23202],[6.50914,51.23168],[6.50941,51.23165],[6.50978,51.23161],[6.51033,51.23154],[6.51079,51.23148],[6.51172,51.23137],[6.51288,51.23123],[6.51373,51.23113],[6.51454,51.23103],[6.51478,51.231],[6.51488,51.23099],[6.51511,51.23096],[6.51539,51.23093],[6.51566,51.2309],[6.51614,51.23085],[6.51663,51.2308],[6.5168,51.23078],[6.51703,51.23075],[6.51727,51.23072],[6.51785,51.23065],[6.51843,51.23059],[6.51847,51.23058],[6.51884,51.23054],[6.5192,51.2305],[6.51951,51.23047],[6.51982,51.23044],[6.51993,51.23042],[6.51999,51.23042],[6.51961,51.23005],[6.51718,51.22777],[6.5195,51.22685],[6.52128,51.22611],[6.5221,51.22577],[6.52214,51.22576],[6.52272,51.22552],[6.5271,51.22375],[6.52989,51.22259],[6.52993,51.22258],[6.53127,51.22388],[6.53181,51.22439],[6.5336,51.2261],[6.53363,51.22613],[6.5327,51.22644],[6.53466,51.22837],[6.53311,51.22857],[6.5332,51.22865],[6.53353,51.22892],[6.53368,51.22906],[6.53381,51.22917],[6.53395,51.22929],[6.53409,51.22942],[6.53424,51.22957],[6.5343,51.22963],[6.53506,51.23043],[6.53533,51.23069],[6.53561,51.23096],[6.53577,51.23111],[6.53587,51.23121],[6.5359,51.23124],[6.53591,51.23124],[6.53596,51.23123],[6.53689,51.23102],[6.53884,51.2308],[6.54075,51.23058],[6.5428,51.23037],[6.54481,51.23017],[6.54652,51.22998],[6.54678,51.22995],[6.54751,51.22986],[6.54815,51.22979],[6.54984,51.2296],[6.55305,51.22921],[6.5547,51.22902],[6.55493,51.22899],[6.55518,51.22897],[6.55578,51.22891],[6.55633,51.22887],[6.55668,51.22884],[6.55702,51.22882],[6.55723,51.22881],[6.55752,51.2288],[6.55785,51.22879],[6.55847,51.22877],[6.55922,51.22875],[6.56092,51.22871],[6.56151,51.22869],[6.56189,51.22869],[6.56232,51.22868],[6.56232,51.22874],[6.56232,51.22882],[6.56233,51.22885],[6.56234,51.22887],[6.56236,51.22891],[6.56243,51.229],[6.56272,51.2294],[6.56355,51.23055],[6.56468,51.23212],[6.56478,51.23227],[6.56482,51.23232],[6.56486,51.23238],[6.56493,51.23247],[6.56494,51.23249],[6.56495,51.23251],[6.56579,51.23365],[6.56581,51.23368],[6.56583,51.23371],[6.56585,51.23373],[6.56586,51.23375],[6.56586,51.23376],[6.56586,51.23378],[6.56572,51.23406],[6.56571,51.23408],[6.5657,51.2341],[6.56571,51.23412],[6.56571,51.23413],[6.56573,51.23415],[6.56576,51.23417],[6.56602,51.2343],[6.56624,51.2344],[6.56628,51.23441],[6.56632,51.23443],[6.56637,51.23445],[6.56642,51.23447],[6.56646,51.23448],[6.5665,51.23448],[6.56654,51.23449],[6.56657,51.23449],[6.5666,51.23449],[6.56663,51.23448],[6.56671,51.23445],[6.56688,51.23439],[6.56695,51.23437],[6.56705,51.23435],[6.56711,51.23433],[6.56717,51.23432],[6.56721,51.23432],[6.56726,51.23432],[6.5673,51.23432],[6.56735,51.23433],[6.56739,51.23434],[6.56743,51.23436],[6.56841,51.23484],[6.56974,51.2355],[6.57096,51.23612],[6.57101,51.23614],[6.57106,51.23618],[6.5711,51.2362],[6.57113,51.23623],[6.57154,51.23661],[6.57158,51.23664],[6.57159,51.23665],[6.5716,51.23665],[6.57162,51.23665],[6.57165,51.23666],[6.57174,51.23666],[6.5718,51.23719],[6.5718,51.23722],[6.57193,51.23722],[6.57196,51.23722],[6.57198,51.23723],[6.572,51.23723],[6.57202,51.23724],[6.57204,51.23725],[6.57205,51.23727],[6.57205,51.23728],[6.57206,51.23729],[6.57205,51.23793],[6.56928,51.23805],[6.56652,51.23817],[6.56689,51.23869],[6.56692,51.23877],[6.56693,51.23884],[6.56694,51.23886],[6.56696,51.23889],[6.5672,51.23927],[6.56724,51.23937],[6.56777,51.24104],[6.56778,51.24106],[6.57036,51.24095],[6.57217,51.24088],[6.57258,51.24086],[6.57266,51.24086],[6.57273,51.24085],[6.57428,51.24072],[6.57432,51.24072],[6.57453,51.2407],[6.5747,51.24069],[6.57505,51.24066],[6.57515,51.24066],[6.57526,51.24065],[6.57535,51.24065],[6.57543,51.24065],[6.57555,51.24066],[6.57573,51.24067],[6.57592,51.24069],[6.57611,51.24071],[6.5763,51.24072],[6.57649,51.24073],[6.57667,51.24073],[6.57685,51.24074],[6.57706,51.24074],[6.57725,51.24074],[6.57744,51.24073],[6.57762,51.24072],[6.57794,51.24069],[6.57811,51.24068],[6.57832,51.24066],[6.5784,51.24066],[6.5785,51.24066],[6.57859,51.24066],[6.5787,51.24067],[6.57885,51.24068],[6.57886,51.24074],[6.57897,51.24075],[6.58262,51.24091],[6.58243,51.24173],[6.58247,51.24173],[6.58659,51.24189],[6.59137,51.24188],[6.59139,51.24192],[6.59146,51.24193],[6.5969,51.24187],[6.59692,51.24254],[6.59696,51.24254],[6.59699,51.24254],[6.60083,51.24251],[6.6012,51.2425],[6.60125,51.24388],[6.60126,51.24433],[6.60129,51.24505],[6.60165,51.24504],[6.60247,51.24504],[6.60519,51.24501],[6.60519,51.24503],[6.60526,51.24766],[6.60531,51.24766],[6.61945,51.2475],[6.61944,51.24752],[6.61887,51.24889],[6.61881,51.24902],[6.6188,51.24906],[6.6188,51.24909],[6.6188,51.24915],[6.6188,51.24918],[6.61881,51.24921],[6.61882,51.24922],[6.61885,51.2493],[6.61891,51.2493],[6.61924,51.24932],[6.61949,51.24933],[6.61975,51.24934],[6.62,51.24936],[6.62026,51.24938],[6.62063,51.24942],[6.62098,51.24946],[6.6211,51.24948],[6.62127,51.2495],[6.62146,51.24953],[6.6217,51.24957],[6.62183,51.24958],[6.62219,51.24963],[6.6225,51.24967],[6.62264,51.24969],[6.62279,51.24971],[6.62329,51.24979],[6.62345,51.24981],[6.62446,51.24996],[6.62465,51.24999],[6.62488,51.25003],[6.62506,51.25007],[6.6252,51.2501],[6.62533,51.25013],[6.62548,51.25017],[6.62559,51.2502],[6.62566,51.25023],[6.62596,51.25035],[6.62378,51.25312],[6.62027,51.25313],[6.62013,51.25314],[6.6201,51.25296],[6.61796,51.253],[6.61614,51.25289],[6.6161,51.25289],[6.61579,51.25324],[6.6154,51.25369],[6.61538,51.2537],[6.61343,51.25593],[6.61338,51.25599],[6.61334,51.2561],[6.6131,51.25673],[6.61298,51.25703],[6.61277,51.25758],[6.61273,51.2577],[6.61255,51.25812],[6.61146,51.26076],[6.61129,51.26121],[6.61126,51.26129],[6.61114,51.26165],[6.61063,51.2631],[6.61054,51.26338],[6.6102,51.26329],[6.60882,51.26292],[6.60821,51.26275],[6.6079,51.26268],[6.6073,51.26253],[6.60713,51.26249],[6.60499,51.26197],[6.60489,51.26195],[6.60481,51.26193],[6.60473,51.26192],[6.60464,51.2619],[6.60456,51.2619],[6.60448,51.26189],[6.60326,51.26185],[6.60109,51.26196],[6.60001,51.26204],[6.59989,51.26205],[6.59976,51.26205],[6.59962,51.26205],[6.59945,51.26205],[6.59924,51.26204],[6.59905,51.26203],[6.59883,51.26201],[6.5987,51.262],[6.5986,51.26199],[6.5963,51.2616],[6.59629,51.26162],[6.59599,51.26251],[6.59567,51.26369],[6.59531,51.26463],[6.59523,51.26483],[6.59355,51.2646],[6.59322,51.26648],[6.5932,51.26656],[6.59316,51.26663],[6.59288,51.26834],[6.59283,51.26857],[6.59281,51.2686],[6.59143,51.27109],[6.59137,51.27107],[6.59136,51.27109],[6.59123,51.27135],[6.59107,51.27165],[6.5907,51.27236],[6.59042,51.27293],[6.59014,51.27348],[6.58977,51.27425],[6.5895,51.27482],[6.58923,51.27535],[6.58913,51.27551],[6.58709,51.27639],[6.58711,51.27642],[6.58712,51.27643],[6.58724,51.27659],[6.58785,51.27744],[6.58807,51.27775],[6.58835,51.27813],[6.58837,51.2782],[6.5884,51.27831],[6.5884,51.27831],[6.58867,51.27917],[6.58785,51.27913],[6.58756,51.27912],[6.58687,51.27913],[6.58683,51.27974],[6.58682,51.27981],[6.58606,51.2798],[6.58579,51.28324],[6.58575,51.28324],[6.58575,51.28337],[6.58573,51.28353],[6.58572,51.28363],[6.58571,51.28367],[6.58569,51.28374],[6.58565,51.28383],[6.58565,51.28383],[6.58565,51.28383],[6.58551,51.28415],[6.58536,51.28449],[6.58528,51.28474],[6.58526,51.28484],[6.58521,51.28518],[6.5852,51.28526],[6.5852,51.28526],[6.58544,51.28534],[6.58537,51.28541],[6.58531,51.28548],[6.58545,51.28555],[6.58557,51.2856],[6.58571,51.28567],[6.58579,51.28571],[6.58582,51.28575],[6.58589,51.28583],[6.58533,51.28596],[6.58512,51.28611],[6.58512,51.28649],[6.58502,51.28655],[6.585,51.28655],[6.58413,51.28659],[6.58045,51.28675],[6.58031,51.28676],[6.58028,51.28677],[6.58018,51.28681],[6.58013,51.28684],[6.57998,51.28686],[6.57972,51.28687],[6.57965,51.28687],[6.57967,51.28652],[6.57975,51.28608],[6.57972,51.28605],[6.57956,51.28603],[6.57872,51.28606],[6.57352,51.28635],[6.57337,51.2864],[6.57307,51.28652],[6.57274,51.28655],[6.57219,51.28657],[6.57213,51.28657],[6.56848,51.28685],[6.56788,51.2869],[6.56401,51.2871],[6.56206,51.28721],[6.56206,51.28721],[6.5613,51.28725],[6.56003,51.28735],[6.5596,51.2873],[6.5584,51.2874],[6.55803,51.28747],[6.55752,51.28769],[6.55733,51.28781],[6.55695,51.28807],[6.55677,51.2882],[6.55632,51.28835],[6.55602,51.28838],[6.55572,51.28837],[6.55494,51.28834],[6.55493,51.28829],[6.55492,51.28819],[6.55485,51.28768],[6.55476,51.28768],[6.55449,51.28769],[6.55316,51.28777],[6.54937,51.28795],[6.54842,51.28801],[6.54409,51.2883],[6.54063,51.28856],[6.54059,51.28856],[6.54053,51.28856],[6.54043,51.28856],[6.54011,51.28857],[6.53997,51.28858],[6.53983,51.28858],[6.53967,51.28859],[6.53848,51.28867],[6.53814,51.28869],[6.5379,51.28871],[6.53688,51.28877],[6.53588,51.28882],[6.53399,51.28889],[6.53367,51.2889],[6.53331,51.28891],[6.53293,51.28891],[6.53246,51.28891],[6.53203,51.28891],[6.53167,51.28891],[6.53134,51.2889],[6.53104,51.28889],[6.53024,51.28887],[6.52986,51.28885],[6.52908,51.28881],[6.52833,51.28875],[6.52794,51.28871],[6.52754,51.28867],[6.52719,51.28864],[6.52684,51.28859],[6.52537,51.28841],[6.5256,51.28904],[6.52542,51.28902],[6.52509,51.28899],[6.52478,51.28896],[6.5245,51.28893],[6.52405,51.28888],[6.52282,51.28876],[6.52275,51.28876],[6.52235,51.28872],[6.52166,51.28864],[6.52116,51.28859],[6.52093,51.28857],[6.52038,51.28851],[6.52019,51.2885],[6.51891,51.28836],[6.51816,51.28828],[6.51809,51.28828],[6.51799,51.28827],[6.51795,51.28824],[6.51612,51.2867],[6.516,51.28675],[6.51588,51.28679],[6.5159,51.2868],[6.51644,51.28724],[6.51656,51.28734],[6.51694,51.28767],[6.51575,51.28929],[6.51546,51.28968],[6.51544,51.28971],[6.51429,51.29138],[6.51056,51.29099],[6.50944,51.29088],[6.50653,51.29058],[6.50469,51.29038],[6.50296,51.2902],[6.50107,51.29],[6.50031,51.28992],[6.50034,51.28997],[6.50104,51.29077],[6.5013,51.29108],[6.50133,51.29112],[6.50127,51.29113],[6.50122,51.29115],[6.50124,51.29117],[6.50121,51.29124],[6.50111,51.29173],[6.5011,51.29175],[6.50097,51.29201],[6.50087,51.29221],[6.5006,51.29278],[6.50043,51.29305],[6.50028,51.29331],[6.50006,51.29371],[6.50001,51.2938],[6.49983,51.29417],[6.49979,51.29424],[6.49967,51.29433],[6.49924,51.29466],[6.49858,51.29516],[6.4982,51.29546],[6.49767,51.29587],[6.49728,51.29617],[6.49704,51.29636],[6.4968,51.29654],[6.49657,51.29673],[6.49625,51.29701],[6.49606,51.29719],[6.49575,51.29744],[6.49522,51.29785],[6.49473,51.29823],[6.49437,51.29852],[6.4939,51.29888],[6.49381,51.29895],[6.49334,51.29933],[6.49307,51.29954],[6.49296,51.29969],[6.4929,51.29978],[6.49284,51.29987],[6.4928,51.29993],[6.4928,51.29993]]]]}}]}
